{"type": "FeatureCollection", "features": [{"type": "Feature", "properties": {"adm2_name": "Mandalay", "adm2_name1": "\u1019\u1014\u1039\u1010\u101c\u1031\u1038\u1001\u101b\u102d\u102f\u1004\u103a", "adm2_name2": null, "adm2_name3": null, "adm2_pcode": "MMR010D001", "adm1_name": "Mandalay", "adm1_name1": "\u1019\u1014\u1039\u1010\u101c\u1031\u1038\u1010\u102d\u102f\u1004\u103a\u1038\u1012\u1031\u101e\u1000\u103c\u102e\u1038", "adm1_name2": null, "adm1_name3": null, "adm1_pcode": "MMR010", "adm0_name": "Myanmar", "adm0_name1": "\u1019\u103c\u1014\u103a\u1019\u102c\u1014\u102d\u102f\u1004\u103a\u1004\u1036", "adm0_name2": null, "adm0_name3": null, "adm0_pcode": "MMR", "valid_on": "2024-02-15", "valid_to": null, "area_sqkm": 911.80486272, "version": "v01", "lang": "en", "lang1": "my", "lang2": null, "lang3": null, "center_lat": 21.97002084, "center_lon": 96.15576516}, "geometry": {"type": "Polygon", "coordinates": [[[96.22266771400018, 22.1571498080001], [96.21322943200016, 22.15847448000011], [96.20991882600015, 22.15893912700011], [96.19744785300009, 22.165709082999967], [96.19426229100014, 22.167438388000164], [96.18204844100012, 22.167438388000164], [96.17815842900012, 22.167438388000164], [96.17614544800011, 22.155136827000092], [96.1734614720001, 22.152005520999978], [96.16630419800015, 22.149768872000095], [96.15180550000008, 22.14145344100018], [96.1510949960001, 22.141045946000133], [96.145056049, 22.138809300000162], [96.1457270410001, 22.133441345], [96.14780220900002, 22.13244219100011], [96.1517659910001, 22.130533704000015], [96.16482888000007, 22.12844337000007], [96.16337170700007, 22.12327702600004], [96.16169651900003, 22.118809862999967], [96.16068772800014, 22.11611975500017], [96.15822741700003, 22.11231745400005], [96.15218846700003, 22.111870124000177], [96.15151747500016, 22.109186148000163], [96.1501754860002, 22.10404185800013], [96.149055681, 22.10150363400004], [96.14682051500017, 22.096437257], [96.1451008680001, 22.09048464000017], [96.13880168200006, 22.090942762000054], [96.1345189540001, 22.092858622000108], [96.134020809, 22.085798163000106], [96.13338252400007, 22.076751412000192], [96.13327205200017, 22.075185640000143], [96.13157728300018, 22.073872775000154], [96.12646702300009, 22.07586010000017], [96.12613634500008, 22.064451682000026], [96.12484633600002, 22.06461706800019], [96.11475523000018, 22.06591079900005], [96.11469127000004, 22.0656478570001], [96.112981311, 22.058618023000065], [96.10627984000001, 22.054478879000044], [96.10193006500009, 22.05599784800006], [96.10190641200018, 22.055990681000083], [96.09031457300006, 22.059997737000174], [96.08664227200006, 22.061334317000103], [96.08097786400015, 22.055216758000086], [96.07921082900003, 22.053308361], [96.07901279600009, 22.053398376000075], [96.07113484800004, 22.05865034100009], [96.06517045599998, 22.05536992400016], [96.06514938100014, 22.05536739500002], [96.05895496700009, 22.054624064999985], [96.05771496500012, 22.05447526500012], [96.0562973270001, 22.05388865599997], [96.04906659400018, 22.050896629000135], [96.04787371500015, 22.04791443100015], [96.05145235100014, 22.04433579600004], [96.05422942400014, 22.04063303200013], [96.05955820600013, 22.033527992000018], [96.06132847700019, 22.024882737000155], [96.0599470800002, 22.024397330000056], [96.04687522400008, 22.01980403200014], [96.04652665900005, 22.019611806000057], [96.04174215000006, 22.016973237000116], [96.0389271250001, 22.01749602700005], [96.03087519400015, 22.012724513000137], [96.0254852330001, 22.00761823200014], [96.02500112300004, 22.007734505000087], [96.01875871800019, 22.019082841000056], [96.01875877400016, 22.019083023000064], [96.01890004700005, 22.02089410299999], [96.01875864400017, 22.019083020000153], [96.0187586420002, 22.019082979000075], [96.01626759800013, 22.01103760899997], [96.0162181020001, 22.010131617000184], [96.0162180260001, 22.010130223000033], [96.01621799800012, 22.010129710000115], [96.01620264000007, 22.009847670000056], [96.01589431600013, 22.009061785000142], [96.01517920700002, 22.007238744000176], [96.01367191200012, 22.00339617000003], [96.01523469699998, 21.991676755000185], [96.01796926700013, 21.985035791000143], [96.01915015000003, 21.98364651500009], [96.01951819100003, 21.983213526000043], [96.02115228600013, 21.98129106199997], [96.02274858200008, 21.97941306700011], [96.02461017500019, 21.977222957000095], [96.02444235000007, 21.97386481200016], [96.02421971700005, 21.969409988000166], [96.0207042580002, 21.95925307000016], [96.019878533, 21.958046134000142], [96.01881999900019, 21.956498907000082], [96.01562621400018, 21.95183065600014], [96.01562699700014, 21.9518228070001], [96.01570047100017, 21.951013985000145], [96.01640766800017, 21.943236410999987], [96.01650659600017, 21.943005583000115], [96.01875157800009, 21.93776738400004], [96.0143876950001, 21.930646721000187], [96.01365241600007, 21.926358078000135], [96.01313263200007, 21.923326351000014], [96.01274282700007, 21.92105273900006], [96.01274281400015, 21.921052665000047], [96.01268191600008, 21.920919866000133], [96.00995665600004, 21.914976888000126], [96.00844378300019, 21.910438272000135], [96.00802460200003, 21.90898511100005], [96.00584720799998, 21.901436812000156], [96.00423765500011, 21.895857025000055], [96.0039051660001, 21.894704397000112], [96.00250293900012, 21.890066263], [95.99997169700015, 21.881693692000113], [95.99693403300017, 21.877354172000082], [95.99543772100014, 21.875216583000054], [95.99544202600009, 21.87530267600016], [95.99183340100018, 21.870074322000107], [95.99149961100011, 21.86959071100017], [95.98739436000017, 21.868004126000073], [95.99171008100012, 21.862419077000084], [95.99192001900008, 21.862147392000054], [95.99219124700011, 21.858892649000154], [95.99010689400006, 21.856602487000032], [95.99010629700012, 21.856601831000148], [95.98994583000007, 21.856111055000042], [95.98850038500012, 21.854837354000097], [95.98826161700003, 21.85468520699999], [95.9872608180001, 21.854047775000026], [95.98652433500018, 21.853491803000054], [95.98652354600006, 21.85349120700016], [95.98570428100004, 21.85287302800009], [95.98440363300006, 21.85135464800004], [95.98440361700005, 21.851354598000057], [95.98439562200019, 21.851324485000134], [95.98439546399999, 21.85132388900007], [95.98421093900009, 21.850629099000116], [95.98421116800006, 21.850629093000123], [95.98402214100014, 21.849916458000052], [95.984294884, 21.847912703000077], [95.98430831400009, 21.847814244], [95.98468971300008, 21.846235275000026], [95.98495662900018, 21.844988777000083], [95.98507118200013, 21.844453812000154], [95.98507118100002, 21.844453578000127], [95.98507027100015, 21.844210938000117], [95.98506339600004, 21.842420526000126], [95.98536835900012, 21.83998638300011], [95.98568891600007, 21.83814427400017], [95.98597488600012, 21.836274997000146], [95.98699021100003, 21.833257282000147], [95.98869324300006, 21.832344943000066], [95.99272475400011, 21.830185204000145], [95.99488566700012, 21.828312968000148], [95.9948865660001, 21.828312364000055], [96.00298653900018, 21.82287383000005], [96.004603449, 21.821788194000078], [96.01218124000007, 21.813595990000124], [96.02016863900002, 21.810933523000188], [96.0278800420001, 21.81308100200016], [96.03294705000013, 21.81449206800005], [96.03634824400018, 21.81543923600003], [96.04433564300018, 21.820354559000066], [96.04761252600014, 21.825065077999966], [96.04405282800013, 21.827787198000124], [96.04405274400011, 21.827787253000054], [96.03839865800018, 21.83146632500018], [96.03731706600001, 21.835630398000035], [96.03731717200003, 21.835630654000056], [96.03971888600017, 21.841409946], [96.04351473600019, 21.845006014000035], [96.04600556200006, 21.84736574500016], [96.04649382100018, 21.84782830600011], [96.04813163800009, 21.849379922000082], [96.05098912200009, 21.85012075100019], [96.05410911900003, 21.850929639000128], [96.05456433000012, 21.850667017999967], [96.05986521500006, 21.847608818000083], [96.06604918200003, 21.84225773500009], [96.06623579500013, 21.84209625600016], [96.06672924100008, 21.84166937300006], [96.0667358300002, 21.84166367300014], [96.06813621500015, 21.840452194000022], [96.06813602500011, 21.840451218000112], [96.06916352000013, 21.833661357000096], [96.0672437400001, 21.826364519000094], [96.067243593, 21.82636396000015], [96.06737867400011, 21.82314116300006], [96.06739241500009, 21.822813333000113], [96.06960629600019, 21.82148500500017], [96.06964784400009, 21.82149539200003], [96.07314850800003, 21.822370557000056], [96.0762479440001, 21.827462486000115], [96.07616593500018, 21.831162986000038], [96.07616615300003, 21.831163406000087], [96.07616615300003, 21.831163447000165], [96.07846182700007, 21.83565385000003], [96.08244681600019, 21.834989686000142], [96.08510347300017, 21.832554417000154], [96.09462316800011, 21.82635554500007], [96.10134649800005, 21.822400745000095], [96.10134661500012, 21.822400676000143], [96.1013473220001, 21.822399275000123], [96.10281453300013, 21.819492509000156], [96.10212905300006, 21.818464290000065], [96.10104342600005, 21.816835852000168], [96.09418039200006, 21.81218670000004], [96.08776013200014, 21.80953003999997], [96.08266820400002, 21.805987828000184], [96.07853888500006, 21.797895437000022], [96.07853863300005, 21.797894945000166], [96.07860043699998, 21.797242730000107], [96.078904604, 21.794032862999984], [96.08288959200007, 21.789605099000084], [96.08997401300013, 21.788498159000028], [96.09403844100012, 21.791256163000128], [96.09617288500016, 21.79270453500004], [96.09646812400018, 21.799710744000038], [96.09646803599998, 21.799711241000182], [96.09646797200014, 21.79971122700016], [96.09621343600008, 21.80114666999998], [96.09590721100005, 21.802873611000166], [96.09606245800018, 21.80622958500004], [96.0975012130001, 21.80753754500006], [96.10138159000013, 21.809477734000097], [96.1019289780001, 21.809751428000027], [96.1041593860001, 21.809423427000127], [96.10945617800013, 21.808644488000084], [96.11941865000017, 21.808865876000084], [96.1339969280001, 21.81668293300004], [96.13399692900015, 21.81668272400009], [96.13403027400017, 21.81174392100013], [96.13273700600013, 21.805831848000082], [96.13248367400013, 21.80467376100006], [96.1333661070002, 21.80222422800017], [96.14143563500016, 21.798204506000104], [96.14143576400005, 21.7982044420001], [96.14017558200004, 21.790450295000028], [96.13978636700011, 21.78805538200004], [96.13821195900005, 21.780722838000145], [96.13821173600013, 21.78072179800006], [96.1404505320001, 21.77477208600004], [96.14421413200006, 21.772336818000156], [96.14515377300012, 21.77239554500011], [96.15129855600003, 21.772779593999985], [96.1617038010001, 21.77565763900003], [96.16768128500013, 21.77565763900003], [96.16863067700018, 21.783143544999973], [96.16865025300018, 21.78490620499997], [96.16865346999998, 21.785195899000144], [96.16799488100014, 21.788164684000037], [96.16793632500008, 21.788431168000045], [96.16762109100011, 21.79022227000013], [96.16751670800011, 21.790815353000085], [96.1672397000001, 21.79186884699999], [96.16678022900015, 21.79361514599998], [96.16623069200011, 21.796350043000075], [96.16623118400014, 21.79635033400018], [96.17166627300014, 21.7995675680001], [96.18007902600016, 21.7995675680001], [96.18448045800017, 21.796102470000108], [96.18465976500016, 21.793275861000097], [96.18467089000012, 21.792678945999967], [96.18472817800006, 21.789605099000084], [96.19004149800003, 21.78539872300007], [96.19358370700013, 21.789162323000085], [96.19383449200018, 21.791168599000173], [96.19491203800015, 21.7997889560001], [96.20111090700016, 21.803552556000113], [96.20332479100017, 21.81218670000004], [96.20324495000006, 21.82321201700006], [96.20324516300013, 21.823213577], [96.20266917999999, 21.826394808000032], [96.2026691440002, 21.826395035000132], [96.20141631100017, 21.82977802500011], [96.20354617900017, 21.83321858100004], [96.20996643900008, 21.836982181000053], [96.23409775600004, 21.837867734000042], [96.2369758010002, 21.84295966200017], [96.23939877400005, 21.84508744900012], [96.24687959400012, 21.843939425000144], [96.24797600300013, 21.843771167000057], [96.25110730800014, 21.841758183000138], [96.2502126490001, 21.839074207000124], [96.24216071800015, 21.836166566000145], [96.24196971800012, 21.835478964000117], [96.24121214400014, 21.832751695000127], [96.24104239600013, 21.832140600000116], [96.2493179920001, 21.82386500399997], [96.25676895400017, 21.81775470900004], [96.25736992300006, 21.81044511900012], [96.25865442700012, 21.814127363000125], [96.26072489400013, 21.82006270400018], [96.26117222300007, 21.82654898000004], [96.25989254000018, 21.829534907000095], [96.25989251200019, 21.82953497300008], [96.26023507100018, 21.83137986300011], [96.2603166090002, 21.831818996000152], [96.26100097000005, 21.834781511000017], [96.25848824500008, 21.84399483200019], [96.25804091499998, 21.850928438000153], [96.25200196800012, 21.855625398000086], [96.24573935400008, 21.861217018], [96.24372841200017, 21.870042825000098], [96.24357868200019, 21.870699973000114], [96.24320757700013, 21.871095409000134], [96.24206689300007, 21.873955378000062], [96.24206715700012, 21.87395547600005], [96.24614008800006, 21.87547098400006], [96.25180626200006, 21.87666386300009], [96.26164750900017, 21.869506591000118], [96.26313860900007, 21.870103029000063], [96.26703333400019, 21.875641030999986], [96.26707277600008, 21.875638760000072], [96.26735436500019, 21.87604431200009], [96.2673542340001, 21.876044456999978], [96.26244276100005, 21.881501649000143], [96.26482851800017, 21.886273163000055], [96.2656542590002, 21.89976022800016], [96.26565438200015, 21.899760659000094], [96.26751249700015, 21.906253880000122], [96.27288044900018, 21.912218275000043], [96.27227306100019, 21.91748231300005], [96.27254295300014, 21.91798591600002], [96.27806282000006, 21.92604637100004], [96.27857779100015, 21.926739241000178], [96.27858297700004, 21.92674621800012], [96.28414683000005, 21.93423272200016], [96.28527274400011, 21.936306566000155], [96.28527316200018, 21.936306578000142], [96.28820148500006, 21.93639270500006], [96.29133279100017, 21.94064233500012], [96.29178012100004, 21.945786625000153], [96.29073934000019, 21.946641553], [96.29073911400013, 21.94664173900003], [96.2909682080001, 21.94713577300007], [96.2897671390001, 21.952049236999983], [96.29155645600008, 21.95406222100013], [96.2895434740002, 21.95652253200018], [96.29113518600008, 21.962005098000134], [96.2911354100001, 21.962005537000096], [96.29289844500005, 21.96546912200006], [96.28999080400007, 21.969047758000045], [96.285578418, 21.970631692000154], [96.28557806600014, 21.970631818000186], [96.28521848800006, 21.973406055000112], [96.28521809100016, 21.97340911000009], [96.28509330700012, 21.974370956000087], [96.28633657600005, 21.977619497000035], [96.28633983000014, 21.97762799900005], [96.28634126300017, 21.977631744000064], [96.287339955, 21.980241447000083], [96.2873400650002, 21.980241516000035], [96.28734016400011, 21.980241776000014], [96.30105363400003, 21.988906325000073], [96.30520234900001, 21.991527597000072], [96.30922597200015, 21.990072244000032], [96.322645857, 21.994992870000033], [96.3303431710001, 22.000490949000095], [96.3304741230001, 22.000584486000093], [96.33360542900016, 22.00326846500002], [96.33539474600013, 22.012438718], [96.34009170600012, 22.01758300800003], [96.34545966100006, 22.02317462700006], [96.3456833250001, 22.029213574000096], [96.34769630700004, 22.0352525240001], [96.35172227200019, 22.041291470000033], [96.358655881, 22.045093771000154], [96.35955053800006, 22.050909056000023], [96.35888369100002, 22.055206530000135], [96.3628251950002, 22.062642552000057], [96.36282526100001, 22.062642800000106], [96.36282539400014, 22.062643051], [96.36510658300011, 22.071184158000165], [96.3655108160001, 22.079896524], [96.35710178700003, 22.08034810099997], [96.35710151400014, 22.080348116000096], [96.35414286300016, 22.076944537000088], [96.35297681700018, 22.0761161690001], [96.35297698400007, 22.076115956000024], [96.35641923200012, 22.071709877000046], [96.34143369500003, 22.069025899000053], [96.33271077000012, 22.065223598000102], [96.31481759200005, 22.068354904000046], [96.30609466600004, 22.06634192299998], [96.30184503600015, 22.071038883000142], [96.29558242100006, 22.073275529000114], [96.2958060860002, 22.081551125000033], [96.29615154300006, 22.085629971], [96.29598581600015, 22.08850670100003], [96.2897671390001, 22.091616040000133], [96.2790312300001, 22.09362902099997], [96.26986097700012, 22.096313000000123], [96.26382202800005, 22.091616040000133], [96.25711208600018, 22.09295802600019], [96.25330978600016, 22.09608933500016], [96.24637617900015, 22.10011530000014], [96.24011356500012, 22.1005626270001], [96.24011356500012, 22.103693936000127], [96.24141912000005, 22.10717541600002], [96.24141916600007, 22.10717552600005], [96.2448105250001, 22.115324502000192], [96.2436922010001, 22.122481774000107], [96.2436922010001, 22.12812511700014], [96.2436922010001, 22.13075736900015], [96.24238436500008, 22.139185656000052], [96.24238431100008, 22.139186004000067], [96.24386404900008, 22.144182167000167], [96.243864068, 22.14418220099998], [96.24913989400011, 22.153260816000056], [96.25666475600008, 22.159162792000018], [96.25599376200017, 22.16296509300014], [96.25490754100008, 22.16415191900012], [96.2549075070001, 22.164151954000033], [96.25196779600014, 22.16721472300003], [96.24879670300004, 22.164134233000084], [96.2441395300001, 22.159610122000117], [96.236982259, 22.157820803000106], [96.23317995900004, 22.153123843000174], [96.22266771400018, 22.1571498080001]]]}}]}