<?xml version="1.0" encoding="UTF-8"?>
<kml xmlns="http://www.opengis.net/kml/2.2">
  <Document>
    <name>Mandalay Townships</name>
    <Placemark>
      <name>Aungmyaythazan</name>
      <ExtendedData>
        <Data name="adm3_name1"><value>အောင်မြေသာစံ</value></Data>
        <Data name="adm3_pcode"><value>MMR010001</value></Data>
        <Data name="adm2_name"><value>Mandalay</value></Data>
        <Data name="area_sqkm"><value>26.09703332</value></Data>
        <Data name="center_lat"><value>22.00335085</value></Data>
        <Data name="center_lon"><value>96.09700081</value></Data>
      </ExtendedData>
      <Polygon>
        <outerBoundaryIs>
          <LinearRing>
            <coordinates>96.128356646,22.0206864360001,0 96.1283785780001,22.021597468,0 96.1282870040001,22.0219469300002,0 96.1280701940001,22.022259697,0 96.1280416590002,22.022300861,0 96.127753548,22.0224892530002,0 96.1273287610002,22.022596435,0 96.1266068360001,22.0226338120002,0 96.1258774880001,22.0226715740001,0 96.1204058680001,22.0229548620001,0 96.1125567540001,22.0233393300001,0 96.1120142530001,22.0233659030001,0 96.1082972470001,22.0236000390001,0 96.1082827280002,22.0236009540001,0 96.1044232350002,22.023810762,0 96.1034650830001,22.0239671630001,0 96.0983179500001,22.0251231870001,0 96.0968418650001,22.025454709,0 96.0959324290002,22.0255878410001,0 96.0955129950001,22.025619805,0 96.094720253,22.0258708260001,0 96.0945462550001,22.0259250540001,0 96.0942320940001,22.0260414610001,0 96.093969106,22.0261389060001,0 96.093943558,22.0261483730001,0 96.0938931530002,22.0260404640001,0 96.0938637190001,22.0259632620001,0 96.0937117190001,22.0255645720002,0 96.0935362340001,22.0251898070002,0 96.093271518,22.024702018,0 96.0928689760001,22.0240802680001,0 96.0927769540001,22.0239520640001,0 96.0917706330001,22.0229639860001,0 96.0915308900001,22.0226976400001,0 96.0913706480001,22.0224547830002,0 96.090980914,22.021745442,0 96.0908816990001,22.0215648630001,0 96.0905973960001,22.0210009810002,0 96.090228531,22.020439179,0 96.0900819720001,22.0202789550001,0 96.0899609070001,22.0201872480001,0 96.0897004860001,22.0201467970002,0 96.087228092,22.0201165080001,0 96.0864626020001,22.0201071300002,0 96.084162092,22.020069763,0 96.083940079,22.0200299870001,0 96.0837779470001,22.019880228,0 96.0836090880001,22.019683781,0 96.0833487190001,22.0194534630002,0 96.0829707650001,22.0191494050001,0 96.0824444310001,22.0187746410002,0 96.0821899850002,22.0186304010001,0 96.0819879110002,22.0185551550001,0 96.0816469220001,22.0185096740001,0 96.0795963150002,22.0186522280001,0 96.0776082770001,22.0187537470002,0 96.0771312510001,22.0187724420001,0 96.0765296240002,22.0187960190001,0 96.075157275,22.0151286390001,0 96.0750184060002,22.014757534,0 96.0746052590002,22.013630436,0 96.0745571940002,22.0134767370002,0 96.073873485,22.0128483830001,0 96.0728441360001,22.0118413000001,0 96.0726438400002,22.0116180120002,0 96.072438817,22.011375534,0 96.0723419080001,22.0111063300001,0 96.0720829680001,22.009998382,0 96.0719916710001,22.0097053970001,0 96.0718934550002,22.009001528,0 96.0718443790002,22.00839884,0 96.0717723540002,22.0076667820001,0 96.0716878470002,22.007292722,0 96.0715032780001,22.0065538760002,0 96.0714173010001,22.0062514330001,0 96.0705545580001,22.0043684850001,0 96.0705071310001,22.0042687680001,0 96.0702796200001,22.0037904160001,0 96.0697291750001,22.0029112910001,0 96.0693033950001,22.0021967870002,0 96.0688115520002,22.0014572200002,0 96.0683809560001,22.0007282990002,0 96.0680116050002,22.0000100270001,0 96.0676186230002,21.9991958050001,0 96.0672632620002,21.9985446500001,0 96.0664597080001,21.997274109,0 96.0658350690002,21.9962694640001,0 96.0655774960001,21.9958445410001,0 96.0653501510002,21.9954440400001,0 96.064964878,21.9947541360002,0 96.0644989650001,21.9937523290001,0 96.0641758230002,21.9930301020001,0 96.0639811690001,21.9925346610001,0 96.0637735240001,21.992172721,0 96.0631677350001,21.9914979690001,0 96.0618516220002,21.9905000270002,0 96.061674505,21.9901481860001,0 96.0616696590001,21.9901316620001,0 96.0607932440002,21.990127201,0 96.0608360740002,21.9890849970001,0 96.0606219230002,21.9879571320001,0 96.060322111,21.987014866,0 96.0599366380002,21.9857014030001,0 96.0597389870001,21.9848860920001,0 96.0597082100001,21.9847591370001,0 96.0596292760002,21.9845958470002,0 96.0595404900001,21.9844121760001,0 96.0601940390001,21.9843783870001,0 96.0603703550001,21.984366967,0 96.0604673770001,21.984360683,0 96.061655193,21.9842837480002,0 96.0619575100001,21.9841626660001,0 96.065783577,21.9840489500001,0 96.0689760680001,21.9839134300001,0 96.0689896350001,21.983912854,0 96.0710280860001,21.9838614070001,0 96.0716488780001,21.9838457390001,0 96.0731193560001,21.983799963,0 96.0731550230001,21.9837988530001,0 96.0761894810002,21.9837043910001,0 96.0763300240002,21.9837000150001,0 96.0778015270001,21.9836031510001,0 96.0811738570001,21.9833811610002,0 96.0812225420001,21.983377956,0 96.0844437970001,21.9831659110001,0 96.0844497470001,21.9831655190001,0 96.084468243,21.9831643020001,0 96.090931422,21.9827702030001,0 96.0931132640001,21.982637163,0 96.095878036,21.982489584,0 96.1008279540001,21.982225366,0 96.1015800600002,21.9821852200001,0 96.1066332660001,21.981929032,0 96.109546559,21.9817813330001,0 96.1131838180002,21.9815946450001,0 96.1135125670001,21.9816720790001,0 96.116518564,21.9816699440001,0 96.1197463670001,21.981480778,0 96.1236744280001,21.9813491150001,0 96.1271850430002,21.9813351300001,0 96.1283376700001,21.9813305390002,0 96.1286793250002,21.9813530970001,0 96.1285931870001,21.9815291670001,0 96.1282350980001,21.9822611230001,0 96.1280435420001,21.9828094190001,0 96.1280425370001,21.9830114030001,0 96.128041673,21.983185058,0 96.1283155980002,21.983640012,0 96.1288281590001,21.9842885330001,0 96.1290356310002,21.9847968500002,0 96.1289904580001,21.9851328000001,0 96.1286356590001,21.9855851270001,0 96.127607448,21.986670479,0 96.127361307,21.9870673880001,0 96.1269990950001,21.9879978270001,0 96.1260765670002,21.9894014740001,0 96.124965171,21.990442557,0 96.1237771690001,21.9914681370001,0 96.1237059060002,21.9919540840001,0 96.1234900080001,21.9919932840002,0 96.123449671,21.9943290510001,0 96.1235104670001,21.9950306400001,0 96.1236544130001,21.9954088160001,0 96.123815942,21.995763025,0 96.1239135930001,21.9960846110002,0 96.1239613860002,22.000436775,0 96.1239620390002,22.0004962540001,0 96.1239870140002,22.0027704940001,0 96.1240342970001,22.0054610710001,0 96.1240692570001,22.007450459,0 96.1243437490001,22.0079353100001,0 96.1247203620001,22.008413698,0 96.1255693740002,22.0092607880002,0 96.1259072240001,22.0095773560001,0 96.1272057350001,22.0107940730001,0 96.1278180710001,22.0113419790001,0 96.12808621,22.011881375,0 96.1282042670001,22.0152793590001,0 96.1282765860002,22.017360895,0 96.1282933980002,22.0180592180002,0 96.128356646,22.0206864360001,0</coordinates>
          </LinearRing>
        </outerBoundaryIs>
      </Polygon>
    </Placemark>
    <Placemark>
      <name>Chanayethazan</name>
      <ExtendedData>
        <Data name="adm3_name1"><value>ချမ်းအေးသာစံ</value></Data>
        <Data name="adm3_pcode"><value>MMR010002</value></Data>
        <Data name="adm2_name"><value>Mandalay</value></Data>
        <Data name="area_sqkm"><value>11.78208223</value></Data>
        <Data name="center_lat"><value>21.97536068</value></Data>
        <Data name="center_lon"><value>96.09491012</value></Data>
      </ExtendedData>
      <Polygon>
        <outerBoundaryIs>
          <LinearRing>
            <coordinates>96.0595404900001,21.9844121760001,0 96.0595294530002,21.9844127470001,0 96.0593866850001,21.9838416760002,0 96.059258194,21.983370543,0 96.0590154890001,21.9828708560001,0 96.0586728470002,21.9822997850001,0 96.0584444190001,21.981614501,0 96.0581963600001,21.9806865110002,0 96.058067869,21.979986949,0 96.0579251010001,21.9792588340001,0 96.0576823960002,21.9779882020001,0 96.0575253520002,21.9771744260001,0 96.057368307,21.9762892670001,0 96.0571827090001,21.9756468120002,0 96.0569971110001,21.9748901440001,0 96.0568543440001,21.973976431,0 96.056725853,21.973005611,0 96.0563974870002,21.9720490670001,0 96.0561909340001,21.9714906470001,0 96.0565863160001,21.9714926070001,0 96.0565895530001,21.9714926230001,0 96.0571118970001,21.9714366780001,0 96.0606750540002,21.971055052,0 96.0701251700002,21.9700176910001,0 96.0717037940002,21.9698387260001,0 96.0717850270001,21.9698424170002,0 96.0737808340001,21.969933105,0 96.0744107350001,21.9699300110001,0 96.0770082400002,21.9697515770001,0 96.0786617260002,21.969637992,0 96.0786941350001,21.9696360530001,0 96.0813228040001,21.969478748,0 96.0813437040001,21.9694774980001,0 96.0835753640001,21.9693439510001,0 96.0835835670002,21.9693434600002,0 96.088115208,21.9690991690001,0 96.0900550690001,21.9689557050002,0 96.0907717120001,21.9689027060001,0 96.0934234850001,21.96868701,0 96.0950307270002,21.9685702090001,0 96.0972286390001,21.9684104840001,0 96.0999680590001,21.9682013090001,0 96.1014443620002,21.9680885820001,0 96.1030462870001,21.9679725890002,0 96.103386905,21.9679479250001,0 96.1037776910001,21.9679196290001,0 96.1037870420002,21.967919195,0 96.1043570510002,21.967892752,0 96.1056780500002,21.967831469,0 96.1066120850001,21.9677881390002,0 96.108791614,21.9676983360001,0 96.1107530410001,21.96761752,0 96.113812281,21.9675089680001,0 96.1156904680001,21.967438897,0 96.1165556960001,21.9674066170001,0 96.1186857240001,21.967327149,0 96.1237026940001,21.967138147,0 96.126598028,21.9670290010001,0 96.1266702060001,21.9670262800001,0 96.1288067880002,21.966945738,0 96.1300067530001,21.9669115050001,0 96.1313414140001,21.9668734300001,0 96.1315991680001,21.9668660770001,0 96.1318353480001,21.9686952490001,0 96.1326590350001,21.9750745520001,0 96.132821828,21.976031616,0 96.1328184070002,21.9764517670001,0 96.1328180850002,21.9764913310001,0 96.1326498060002,21.976752167,0 96.1323710910001,21.9769170180001,0 96.1318057000001,21.9770049340001,0 96.1314681680001,21.9771071650001,0 96.130824297,21.9776054530001,0 96.1306665330001,21.9777548820002,0 96.1301793350002,21.9785456590001,0 96.1292774110001,21.9801305720001,0 96.1286793250002,21.9813530970001,0 96.1283376700001,21.9813305390002,0 96.1271850430002,21.9813351300001,0 96.1236744280001,21.9813491150001,0 96.1197463670001,21.981480778,0 96.116518564,21.9816699440001,0 96.1135125670001,21.9816720790001,0 96.1131838180002,21.9815946450001,0 96.109546559,21.9817813330001,0 96.1066332660001,21.981929032,0 96.1015800600002,21.9821852200001,0 96.1008279540001,21.982225366,0 96.095878036,21.982489584,0 96.0931132640001,21.982637163,0 96.090931422,21.9827702030001,0 96.084468243,21.9831643020001,0 96.0844497470001,21.9831655190001,0 96.0844437970001,21.9831659110001,0 96.0812225420001,21.983377956,0 96.0811738570001,21.9833811610002,0 96.0778015270001,21.9836031510001,0 96.0763300240002,21.9837000150001,0 96.0761894810002,21.9837043910001,0 96.0731550230001,21.9837988530001,0 96.0731193560001,21.983799963,0 96.0716488780001,21.9838457390001,0 96.0710280860001,21.9838614070001,0 96.0689896350001,21.983912854,0 96.0689760680001,21.9839134300001,0 96.065783577,21.9840489500001,0 96.0619575100001,21.9841626660001,0 96.061655193,21.9842837480002,0 96.0604673770001,21.984360683,0 96.0603703550001,21.984366967,0 96.0601940390001,21.9843783870001,0 96.0595404900001,21.9844121760001,0</coordinates>
          </LinearRing>
        </outerBoundaryIs>
      </Polygon>
    </Placemark>
    <Placemark>
      <name>Mahaaungmyay</name>
      <ExtendedData>
        <Data name="adm3_name1"><value>မဟာအောင်မြေ</value></Data>
        <Data name="adm3_pcode"><value>MMR010003</value></Data>
        <Data name="adm2_name"><value>Mandalay</value></Data>
        <Data name="area_sqkm"><value>14.73302058</value></Data>
        <Data name="center_lat"><value>21.95965016</value></Data>
        <Data name="center_lon"><value>96.09136742</value></Data>
      </ExtendedData>
      <Polygon>
        <outerBoundaryIs>
          <LinearRing>
            <coordinates>96.1315991680001,21.9668660770001,0 96.1313414140001,21.9668734300001,0 96.1300067530001,21.9669115050001,0 96.1288067880002,21.966945738,0 96.1266702060001,21.9670262800001,0 96.126598028,21.9670290010001,0 96.1237026940001,21.967138147,0 96.1186857240001,21.967327149,0 96.1165556960001,21.9674066170001,0 96.1156904680001,21.967438897,0 96.113812281,21.9675089680001,0 96.1107530410001,21.96761752,0 96.108791614,21.9676983360001,0 96.1066120850001,21.9677881390002,0 96.1056780500002,21.967831469,0 96.1043570510002,21.967892752,0 96.1037870420002,21.967919195,0 96.1037776910001,21.9679196290001,0 96.103386905,21.9679479250001,0 96.1030462870001,21.9679725890002,0 96.1014443620002,21.9680885820001,0 96.0999680590001,21.9682013090001,0 96.0972286390001,21.9684104840001,0 96.0950307270002,21.9685702090001,0 96.0934234850001,21.96868701,0 96.0907717120001,21.9689027060001,0 96.0900550690001,21.9689557050002,0 96.088115208,21.9690991690001,0 96.0835835670002,21.9693434600002,0 96.0835753640001,21.9693439510001,0 96.0813437040001,21.9694774980001,0 96.0813228040001,21.969478748,0 96.0786941350001,21.9696360530001,0 96.0786617260002,21.969637992,0 96.0770082400002,21.9697515770001,0 96.0744107350001,21.9699300110001,0 96.0737808340001,21.969933105,0 96.0717850270001,21.9698424170002,0 96.0717037940002,21.9698387260001,0 96.0701251700002,21.9700176910001,0 96.0606750540002,21.971055052,0 96.0571118970001,21.9714366780001,0 96.0565895530001,21.9714926230001,0 96.0565863160001,21.9714926070001,0 96.0561909340001,21.9714906470001,0 96.056173524,21.9714905600002,0 96.0561617380001,21.9712823330001,0 96.0561164170001,21.9704816690001,0 96.0559641320002,21.9694918130001,0 96.0558689530002,21.9687113500001,0 96.0556405250001,21.9678928150001,0 96.0553740260002,21.96676971,0 96.0549171690001,21.9654943190001,0 96.0545554910002,21.9644092840001,0 96.053755992,21.9632290720002,0 96.0532420280002,21.96248668,0 96.052975529,21.9619536810001,0 96.0528363300002,21.961767884,0 96.0526340760001,21.96112543,0 96.0522652600002,21.9602450290001,0 96.0518369570001,21.9590552990001,0 96.0513848590001,21.9582462820002,0 96.0510993240001,21.9575205460002,0 96.0506591240002,21.956735324,0 96.0502546150001,21.9559025130001,0 96.0500047720002,21.9550578040001,0 96.0497668260001,21.9541060200001,0 96.0495939460001,21.9534416510001,0 96.0507559780002,21.9534089500002,0 96.0509716450002,21.9530041330001,0 96.0510210420001,21.9529293310002,0 96.0513880510001,21.9523735760001,0 96.0517092780001,21.9519095810002,0 96.0519234290001,21.951546713,0 96.0521613750002,21.9512373830001,0 96.0525658840002,21.9508209770001,0 96.0529882380001,21.950345085,0 96.0534046440001,21.9498691930001,0 96.0535121160001,21.9497228560002,0 96.0538262050001,21.949266,0 96.054225954,21.948699688,0 96.0545210080001,21.948299938,0 96.0546716270001,21.9480457290001,0 96.0546890910001,21.9480540340001,0 96.0562098620001,21.9487772490002,0 96.0563541430002,21.949263055,0 96.0564187660001,21.9496925990001,0 96.0563853680002,21.9502437600001,0 96.0562811240001,21.9528841670001,0 96.0562704220001,21.9531552460001,0 96.0572591010001,21.9535271200002,0 96.0576970640002,21.9535678390001,0 96.058429522,21.9533060790001,0 96.0592506960001,21.9527799820002,0 96.0592831930001,21.9527370300002,0 96.0593889810001,21.952597209,0 96.0596065720001,21.9524517110001,0 96.0599075920001,21.9522987440001,0 96.0606215110001,21.9521591460001,0 96.0614669470001,21.9520099470001,0 96.0617541810002,21.9520599080001,0 96.0619578020001,21.9521262990002,0 96.0623001660002,21.9526104930001,0 96.062732242,21.9530933040002,0 96.0634757440001,21.9535488870001,0 96.063817185,21.9537581050002,0 96.0644331740001,21.9540201090002,0 96.0653005620001,21.9542059310001,0 96.0659318890002,21.95426381,0 96.0660016890001,21.9542702090001,0 96.0670926290001,21.9542857390001,0 96.0684992960001,21.9541930400002,0 96.0691930420001,21.9540693050001,0 96.0720065470001,21.9539177200002,0 96.0726957620002,21.9538900110001,0 96.0732665660002,21.953831531,0 96.0735351480002,21.9538422900001,0 96.07473996,21.9539204850001,0 96.0747400350002,21.9539301280001,0 96.074742941,21.954306225,0 96.076101875,21.9543280500002,0 96.0787001040002,21.9543384920001,0 96.0797790580001,21.954340497,0 96.0810610180001,21.9543428800001,0 96.0810779600001,21.9541401880001,0 96.082035771,21.9540915430001,0 96.0820607810001,21.9542770710001,0 96.0827823020001,21.954203325,0 96.0827710910001,21.9541255100001,0 96.0836275120002,21.954027291,0 96.0834242450002,21.9533251400001,0 96.0834275590001,21.9533249500001,0 96.0863653280001,21.9531564660001,0 96.0877763190002,21.9530355090001,0 96.087779019,21.9530352780001,0 96.0879241860001,21.9529781490001,0 96.090783614,21.9527333150001,0 96.0921640270001,21.952645206,0 96.0922128090001,21.952642093,0 96.0922832210001,21.9526375990002,0 96.093983337,21.9525290840002,0 96.0941714320001,21.9525324140001,0 96.0966837660001,21.9522974510001,0 96.1002028490002,21.9520300840001,0 96.1008979360001,21.951986262,0 96.1017866500001,21.9519302330001,0 96.105219262,21.9517138230001,0 96.1081438780001,21.9515227690001,0 96.111409951,21.9513094100001,0 96.1158573350002,21.951026656,0 96.1159305300001,21.9510220020002,0 96.1169275350001,21.9509586150002,0 96.1216231340002,21.9506464530001,0 96.1233939220001,21.9505287310001,0 96.125013047,21.950436849,0 96.1291029530001,21.9502047570002,0 96.129190533,21.9501972260002,0 96.1292369910001,21.9512337260001,0 96.1296741380002,21.9524116070002,0 96.1297567600001,21.952929517,0 96.129967697,21.954251748,0 96.1301402560002,21.95533341,0 96.1310436120002,21.9625085440001,0 96.1313207340002,21.964709649,0 96.1315991680001,21.9668660770001,0</coordinates>
          </LinearRing>
        </outerBoundaryIs>
      </Polygon>
    </Placemark>
    <Placemark>
      <name>Chanmyathazi</name>
      <ExtendedData>
        <Data name="adm3_name1"><value>ချမ်းမြသာစည်</value></Data>
        <Data name="adm3_pcode"><value>MMR010004</value></Data>
        <Data name="adm2_name"><value>Mandalay</value></Data>
        <Data name="area_sqkm"><value>25.98928193</value></Data>
        <Data name="center_lat"><value>21.9323078</value></Data>
        <Data name="center_lon"><value>96.10938241</value></Data>
      </ExtendedData>
      <Polygon>
        <outerBoundaryIs>
          <LinearRing>
            <coordinates>96.129190533,21.9501972260002,0 96.1291029530001,21.9502047570002,0 96.125013047,21.950436849,0 96.1233939220001,21.9505287310001,0 96.1216231340002,21.9506464530001,0 96.1169275350001,21.9509586150002,0 96.1159305300001,21.9510220020002,0 96.1158573350002,21.951026656,0 96.111409951,21.9513094100001,0 96.1081438780001,21.9515227690001,0 96.105219262,21.9517138230001,0 96.1017866500001,21.9519302330001,0 96.1008979360001,21.951986262,0 96.1002028490002,21.9520300840001,0 96.0966837660001,21.9522974510001,0 96.0941714320001,21.9525324140001,0 96.093983337,21.9525290840002,0 96.0922832210001,21.9526375990002,0 96.0922128090001,21.952642093,0 96.0921640270001,21.952645206,0 96.090783614,21.9527333150001,0 96.0879241860001,21.9529781490001,0 96.087779019,21.9530352780001,0 96.0877763190002,21.9530355090001,0 96.0863653280001,21.9531564660001,0 96.0834275590001,21.9533249500001,0 96.0834242450002,21.9533251400001,0 96.0836275120002,21.954027291,0 96.0827710910001,21.9541255100001,0 96.0827823020001,21.954203325,0 96.0820607810001,21.9542770710001,0 96.082035771,21.9540915430001,0 96.0810779600001,21.9541401880001,0 96.0810610180001,21.9543428800001,0 96.0797790580001,21.954340497,0 96.0787001040002,21.9543384920001,0 96.076101875,21.9543280500002,0 96.074742941,21.954306225,0 96.0747400350002,21.9539301280001,0 96.07473996,21.9539204850001,0 96.0735351480002,21.9538422900001,0 96.0732665660002,21.953831531,0 96.0726957620002,21.9538900110001,0 96.0720065470001,21.9539177200002,0 96.0691930420001,21.9540693050001,0 96.0684992960001,21.9541930400002,0 96.0670926290001,21.9542857390001,0 96.0660016890001,21.9542702090001,0 96.0659318890002,21.95426381,0 96.0653005620001,21.9542059310001,0 96.0644331740001,21.9540201090002,0 96.063817185,21.9537581050002,0 96.0634757440001,21.9535488870001,0 96.062732242,21.9530933040002,0 96.0623001660002,21.9526104930001,0 96.0619578020001,21.9521262990002,0 96.0617541810002,21.9520599080001,0 96.0614669470001,21.9520099470001,0 96.0606215110001,21.9521591460001,0 96.0599075920001,21.9522987440001,0 96.0596065720001,21.9524517110001,0 96.0593889810001,21.952597209,0 96.0592831930001,21.9527370300002,0 96.0592506960001,21.9527799820002,0 96.058429522,21.9533060790001,0 96.0576970640002,21.9535678390001,0 96.0572591010001,21.9535271200002,0 96.0562704220001,21.9531552460001,0 96.0562811240001,21.9528841670001,0 96.0563853680002,21.9502437600001,0 96.0564187660001,21.9496925990001,0 96.0563541430002,21.949263055,0 96.0562098620001,21.9487772490002,0 96.0546890910001,21.9480540340001,0 96.0546716270001,21.9480457290001,0 96.0546569130001,21.9480387310002,0 96.0547217390001,21.9478682980002,0 96.0547902400002,21.947277271,0 96.0546971300001,21.945088078,0 96.0545209510002,21.9419612480001,0 96.0544305980001,21.9403834640001,0 96.0544375820001,21.93979611,0 96.0544981060002,21.9395918170001,0 96.054783802,21.9391431970001,0 96.0555595900001,21.9380155820002,0 96.0557138990001,21.937731773,0 96.0558977270001,21.9372574430002,0 96.0559219290001,21.936828013,0 96.0558195220001,21.9338457920001,0 96.0556633880001,21.931235155,0 96.0554479,21.9280264210001,0 96.0553482800001,21.9266490720001,0 96.059272713,21.9263659170002,0 96.0601629200001,21.9263281140002,0 96.0624058410002,21.926106441,0 96.0624472120001,21.9254238120001,0 96.0624757660001,21.9249955090001,0 96.0626113950001,21.9249384020001,0 96.0634278900001,21.924952208,0 96.0641364030001,21.9249641880001,0 96.0655666860001,21.924988371,0 96.0655881010002,21.92508117,0 96.0656038840002,21.9252192730002,0 96.065616655,21.9253310130002,0 96.065645208,21.9255879950001,0 96.0656978250002,21.9257498300001,0 96.0672844240001,21.9257210290001,0 96.0694085330001,21.925735047,0 96.07109842,21.9257054750001,0 96.072596902,21.9256485950002,0 96.0747434280001,21.9256372880002,0 96.075135829,21.9256352210001,0 96.0766736720002,21.9256271210002,0 96.0767373760001,21.9256267850001,0 96.0774360970001,21.9257568730001,0 96.0777004870001,21.9257491650001,0 96.0777088600002,21.9258076560001,0 96.0777098470001,21.9258164100001,0 96.0780162490001,21.9285347400001,0 96.0781809450001,21.929514258,0 96.0787130920002,21.9334690750001,0 96.0787644390001,21.933850675,0 96.0789347580001,21.9338474200001,0 96.079045411,21.933845304,0 96.079169559,21.9335187,0 96.0792150250001,21.9333990880001,0 96.0797316520001,21.9326679410001,0 96.0798425300002,21.9325765410002,0 96.0799199040002,21.9324682180002,0 96.0799950350001,21.9324508260001,0 96.0800492770002,21.9324061130001,0 96.0802734220001,21.9322094910002,0 96.080889025,21.9318956400001,0 96.0869950100001,21.9307048620001,0 96.0879327110001,21.9305627510001,0 96.0885663910002,21.9304667160001,0 96.0886959420001,21.9304470820001,0 96.0891266680001,21.9303784500001,0 96.0920660090002,21.9299100930002,0 96.0931136180001,21.9296803850002,0 96.0960051190002,21.9290463680002,0 96.0977957510001,21.928653738,0 96.1009747110001,21.9278923100001,0 96.1020085620001,21.9274360470001,0 96.1023943070002,21.9272658080001,0 96.1036250390002,21.926722657,0 96.1056287760002,21.9258383600001,0 96.1103138000002,21.9237824890001,0 96.110694999,21.9236159740001,0 96.118841746,21.9200573330001,0 96.1190063590001,21.9199841030001,0 96.1204058400002,21.9193615230001,0 96.1255435370001,21.917075945,0 96.1275239300001,21.916199278,0 96.128267023,21.9158609050002,0 96.1306369110002,21.9145199550001,0 96.1307373560001,21.9144625690001,0 96.1327069260001,21.9133373230001,0 96.1338646340001,21.9126759070001,0 96.134054436,21.9125674710002,0 96.134983874,21.9120274430001,0 96.1363590780001,21.9112284140001,0 96.1380314280001,21.9102594660001,0 96.1380328390001,21.9102968230001,0 96.1380352100001,21.9103595780002,0 96.1381491640001,21.9150933830001,0 96.1384516550002,21.9276592780002,0 96.1384530950001,21.9277191000002,0 96.138517516,21.9303952120001,0 96.1390271790002,21.9417359660001,0 96.1390478230001,21.942195329,0 96.1382165830001,21.9423715180001,0 96.1372553250001,21.9425752660001,0 96.1365917740002,21.9427159110001,0 96.1360921980001,21.942821801,0 96.1345156560002,21.9431559630001,0 96.133538035,21.9435709660001,0 96.1317070780001,21.9448764100001,0 96.1305751900001,21.9457880490001,0 96.1299667030002,21.9467685340001,0 96.1294137920001,21.9481679300001,0 96.129166286,21.9496562520001,0 96.129190533,21.9501972260002,0</coordinates>
          </LinearRing>
        </outerBoundaryIs>
      </Polygon>
    </Placemark>
    <Placemark>
      <name>Pyigyitagon</name>
      <ExtendedData>
        <Data name="adm3_name1"><value>ပြည်ကြီးတံခွန်</value></Data>
        <Data name="adm3_pcode"><value>MMR010005</value></Data>
        <Data name="adm2_name"><value>Mandalay</value></Data>
        <Data name="area_sqkm"><value>32.63120114</value></Data>
        <Data name="center_lat"><value>21.90172285</value></Data>
        <Data name="center_lon"><value>96.10658859</value></Data>
      </ExtendedData>
      <Polygon>
        <outerBoundaryIs>
          <LinearRing>
            <coordinates>96.0879327110001,21.9305627510001,0 96.0869950100001,21.9307048620001,0 96.080889025,21.9318956400001,0 96.0802734220001,21.9322094910002,0 96.0800492770002,21.9324061130001,0 96.0799950350001,21.9324508260001,0 96.0799199040002,21.9324682180002,0 96.0798425300002,21.9325765410002,0 96.0797316520001,21.9326679410001,0 96.0792150250001,21.9333990880001,0 96.079169559,21.9335187,0 96.079045411,21.933845304,0 96.0789347580001,21.9338474200001,0 96.0787644390001,21.933850675,0 96.0787130920002,21.9334690750001,0 96.0781809450001,21.929514258,0 96.0780162490001,21.9285347400001,0 96.0777098470001,21.9258164100001,0 96.0777088600002,21.9258076560001,0 96.0777004870001,21.9257491650001,0 96.0775162310002,21.9244620810001,0 96.0774874040002,21.9228662730002,0 96.0774778900001,21.92259733,0 96.077386806,21.9200225660002,0 96.0772824590002,21.9166104080001,0 96.0771710900001,21.9130405060001,0 96.0771156010001,21.9109952470001,0 96.0772117000001,21.9102996110001,0 96.0742401470002,21.9104378070002,0 96.0741292080002,21.9104431140001,0 96.0706834600002,21.9106079560001,0 96.0695111500002,21.9106640380002,0 96.0680627230001,21.9107838900001,0 96.0680442510002,21.910019071,0 96.0680294860001,21.9094077200001,0 96.0686908600001,21.9091042770002,0 96.069122411,21.9090259970001,0 96.071498224,21.907482596,0 96.0723156160002,21.9070577310001,0 96.0735891110002,21.9063544010002,0 96.0740882940001,21.905971626,0 96.0743438360001,21.9054889870001,0 96.0744842780001,21.9051284850001,0 96.074365776,21.9049162180001,0 96.0745695990001,21.9024552570002,0 96.0762439690001,21.9011667660002,0 96.076380697,21.9009876960001,0 96.0762911380002,21.9008619190001,0 96.0760789820002,21.9007244100002,0 96.0760635860001,21.9004757660001,0 96.0761837470001,21.9001053480001,0 96.0766022100001,21.899663812,0 96.0773976130001,21.8988086540001,0 96.0779201460001,21.8982829880002,0 96.078184527,21.8978673670001,0 96.078634648,21.8973786220001,0 96.0788476690002,21.8969716400002,0 96.0789404530001,21.8966097020001,0 96.0790618590001,21.8961202780001,0 96.0791200300001,21.8957774140001,0 96.0791876530001,21.8954729290001,0 96.0794958740001,21.8949147920002,0 96.0800586170002,21.8939217490002,0 96.0805357980001,21.893108685,0 96.0807826150001,21.892549456,0 96.0809041160001,21.8921121870002,0 96.0809561330002,21.8915686050001,0 96.0811752840002,21.8913623340001,0 96.081417785,21.891280236,0 96.0816764530001,21.8912417950001,0 96.0817292240001,21.8910811090001,0 96.0818213350002,21.8908006320001,0 96.0820001400002,21.8905649850001,0 96.0820360860001,21.8903077,0 96.0820000190001,21.8900682420001,0 96.0820255390001,21.889820324,0 96.0821213200001,21.8896405210002,0 96.0821474220001,21.8893639550002,0 96.0821526720002,21.8891061240001,0 96.0821689310002,21.8888102780001,0 96.0822691830002,21.8884108420001,0 96.0824833440002,21.887946556,0 96.0826807330001,21.8873004710002,0 96.0827707500002,21.8869008520001,0 96.0827860350001,21.8866527520001,0 96.0828210060001,21.8864432120002,0 96.0827737350002,21.8862513200001,0 96.0826247310001,21.8860289650001,0 96.0826205650001,21.8859995380001,0 96.0825799870001,21.8857129320002,0 96.082564189,21.885483386,0 96.0824476300001,21.8851756320001,0 96.0824420640001,21.8849462680001,0 96.0825803210001,21.8846907960001,0 96.0827911700001,21.884388846,0 96.08287652,21.8842184100001,0 96.082880796,21.8840083260002,0 96.0828265970001,21.8836539140001,0 96.0828048420001,21.8832141030001,0 96.0828087290002,21.8830231170001,0 96.0829778720001,21.882758639,0 96.083321142,21.8824876940001,0 96.0835902660001,21.8823396200001,0 96.0872622290001,21.8818290990001,0 96.0876674480002,21.8818053400001,0 96.091317039,21.8812120610002,0 96.0913238570001,21.8812118750001,0 96.09184603,21.8811976640001,0 96.092147084,21.8811894710001,0 96.0922351,21.8809577380002,0 96.0923417070001,21.8806770590001,0 96.0925469460001,21.880145729,0 96.0927911730001,21.879710614,0 96.0931848000001,21.8794787470001,0 96.0940008100001,21.8791110450001,0 96.100384362,21.8757177370001,0 96.1017805700001,21.8750713650001,0 96.1022145560001,21.8748704520001,0 96.103266793,21.874383321,0 96.103947051,21.8741469160001,0 96.104647996,21.874104135,0 96.1047975700001,21.8740950060001,0 96.104845658,21.8741013610002,0 96.1052319190001,21.874152406,0 96.1086437030002,21.875674614,0 96.1111636460002,21.8767989160002,0 96.1119974650002,21.8771930130002,0 96.1124699950002,21.8773684410001,0 96.1130511090001,21.8774334000001,0 96.1135271960002,21.877401853,0 96.1139265070001,21.8772784500001,0 96.1144128080001,21.877012206,0 96.1146869570001,21.8768621130001,0 96.1152553280002,21.8764885580001,0 96.1154659620001,21.8762690180002,0 96.1154889980001,21.8762147000001,0 96.1201351520002,21.8730259620001,0 96.1209750420002,21.87244953,0 96.1224087630001,21.8714655420001,0 96.124607129,21.869956765,0 96.124859338,21.8699184970001,0 96.1251743890001,21.870029081,0 96.1261193540002,21.8703703800001,0 96.1270452000001,21.8706444700001,0 96.1282117170001,21.8706552680001,0 96.1298588400002,21.8702369410001,0 96.131133155,21.8699132980001,0 96.1327205490001,21.869348661,0 96.1358268650001,21.8685716100001,0 96.1361798600002,21.86850445,0 96.136339799,21.8720883080001,0 96.1370981700002,21.8890816370001,0 96.1372124770001,21.892468725,0 96.137204925,21.8924693480002,0 96.1374869610001,21.8967934020002,0 96.1375082660002,21.8975988940001,0 96.1375519060001,21.899248821,0 96.1375574500001,21.8994584280001,0 96.1375621070001,21.899481428,0 96.1376111440002,21.9006540510001,0 96.1376790940001,21.9022789390001,0 96.1377206120002,21.9032717780001,0 96.1377313630001,21.9033055940001,0 96.1377244750002,21.9033641580001,0 96.1377422650001,21.9037895760001,0 96.1377701720002,21.9044568980001,0 96.1378472500002,21.9063000890001,0 96.1378742410002,21.906945529,0 96.1378967130001,21.9074828880002,0 96.137870793,21.9075973400001,0 96.137897792,21.9082951820001,0 96.1379573390001,21.908298444,0 96.1380279950001,21.9101685970001,0 96.1380314280001,21.9102594660001,0 96.1363590780001,21.9112284140001,0 96.134983874,21.9120274430001,0 96.134054436,21.9125674710002,0 96.1338646340001,21.9126759070001,0 96.1327069260001,21.9133373230001,0 96.1307373560001,21.9144625690001,0 96.1306369110002,21.9145199550001,0 96.128267023,21.9158609050002,0 96.1275239300001,21.916199278,0 96.1255435370001,21.917075945,0 96.1204058400002,21.9193615230001,0 96.1190063590001,21.9199841030001,0 96.118841746,21.9200573330001,0 96.110694999,21.9236159740001,0 96.1103138000002,21.9237824890001,0 96.1056287760002,21.9258383600001,0 96.1036250390002,21.926722657,0 96.1023943070002,21.9272658080001,0 96.1020085620001,21.9274360470001,0 96.1009747110001,21.9278923100001,0 96.0977957510001,21.928653738,0 96.0960051190002,21.9290463680002,0 96.0931136180001,21.9296803850002,0 96.0920660090002,21.9299100930002,0 96.0891266680001,21.9303784500001,0 96.0886959420001,21.9304470820001,0 96.0885663910002,21.9304667160001,0 96.0879327110001,21.9305627510001,0</coordinates>
          </LinearRing>
        </outerBoundaryIs>
      </Polygon>
    </Placemark>
    <Placemark>
      <name>Amarapura</name>
      <ExtendedData>
        <Data name="adm3_name1"><value>အမရပူရ</value></Data>
        <Data name="adm3_pcode"><value>MMR010006</value></Data>
        <Data name="adm2_name"><value>Mandalay</value></Data>
        <Data name="area_sqkm"><value>208.7247097</value></Data>
        <Data name="center_lat"><value>21.86322294</value></Data>
        <Data name="center_lon"><value>96.10315999</value></Data>
      </ExtendedData>
      <Polygon>
        <outerBoundaryIs>
          <LinearRing>
            <coordinates>96.0624757660001,21.9249955090001,0 96.0624472120001,21.9254238120001,0 96.0624058410002,21.926106441,0 96.0601629200001,21.9263281140002,0 96.059272713,21.9263659170002,0 96.0553482800001,21.9266490720001,0 96.0554479,21.9280264210001,0 96.0556633880001,21.931235155,0 96.0558195220001,21.9338457920001,0 96.0559219290001,21.936828013,0 96.0558977270001,21.9372574430002,0 96.0557138990001,21.937731773,0 96.0555595900001,21.9380155820002,0 96.054783802,21.9391431970001,0 96.0544981060002,21.9395918170001,0 96.0544375820001,21.93979611,0 96.0544305980001,21.9403834640001,0 96.0545209510002,21.9419612480001,0 96.0546971300001,21.945088078,0 96.0547902400002,21.947277271,0 96.0547217390001,21.9478682980002,0 96.0546569130001,21.9480387310002,0 96.0546716270001,21.9480457290001,0 96.0545210080001,21.948299938,0 96.054225954,21.948699688,0 96.0538262050001,21.949266,0 96.0535121160001,21.9497228560002,0 96.0534046440001,21.9498691930001,0 96.0529882380001,21.950345085,0 96.0525658840002,21.9508209770001,0 96.0521613750002,21.9512373830001,0 96.0519234290001,21.951546713,0 96.0517092780001,21.9519095810002,0 96.0513880510001,21.9523735760001,0 96.0510210420001,21.9529293310002,0 96.0509716450002,21.9530041330001,0 96.0507559780002,21.9534089500002,0 96.0495939460001,21.9534416510001,0 96.0492116770002,21.9533731530001,0 96.0441618980001,21.951895169,0 96.0437845580001,21.9491280040002,0 96.0435424250001,21.9473523600001,0 96.0423321270001,21.940998294,0 96.0407129400002,21.9393791070001,0 96.0362806370002,21.934946804,0 96.0232971290001,21.9287641820001,0 96.0223904060001,21.9283324090002,0 96.0204562020001,21.9270382830001,0 96.01274583,21.9210550060001,0 96.0127430770001,21.9210529940001,0 96.0127429960002,21.9210529330001,0 96.0127428270001,21.9210527390001,0 96.0127428140001,21.921052665,0 96.0126819160001,21.9209198660001,0 96.009956656,21.9149768880001,0 96.0084437830002,21.9104382720001,0 96.008024602,21.908985111,0 96.005847208,21.9014368120002,0 96.0042376550001,21.8958570250001,0 96.0039051660001,21.8947043970001,0 96.0025029390001,21.890066263,0 95.9999716970001,21.8816936920001,0 95.9969340330002,21.8773541720001,0 95.9954377210001,21.8752165830001,0 95.9954420260001,21.8753026760002,0 95.9918334010002,21.8700743220001,0 95.9914996110001,21.8695907110002,0 95.9873943600002,21.8680041260001,0 95.9917100810001,21.8624190770001,0 95.9919200190001,21.8621473920001,0 95.9921912470001,21.8588926490002,0 95.9901068940001,21.856602487,0 95.9901062970001,21.8566018310001,0 95.9899458300001,21.856111055,0 95.9885003850001,21.8548373540001,0 95.988261617,21.854685207,0 95.9872608180001,21.854047775,0 95.9865243350002,21.8534918030001,0 95.9865235460001,21.8534912070002,0 95.985704281,21.8528730280001,0 95.9844036330001,21.851354648,0 95.9844036170001,21.8513545980001,0 95.9843956220002,21.8513244850001,0 95.984395464,21.8513238890001,0 95.9842109390001,21.8506290990001,0 95.9842111680001,21.8506290930001,0 95.9840221410001,21.8499164580001,0 95.984294884,21.8479127030001,0 95.9843083140001,21.847814244,0 95.9846897130001,21.846235275,0 95.9849566290002,21.8449887770001,0 95.9850711820001,21.8444538120002,0 95.985071181,21.8444535780001,0 95.9850702710002,21.8442109380001,0 95.985063396,21.8424205260001,0 95.9853683590001,21.8399863830001,0 95.9856889160001,21.8381442740002,0 95.9859748860001,21.8362749970001,0 95.986990211,21.8332572820001,0 95.9886932430001,21.8323449430001,0 95.9927247540001,21.8301852040001,0 95.9948856670001,21.8283129680001,0 95.9948865660001,21.8283123640001,0 96.0029865390002,21.82287383,0 96.004603449,21.8217881940001,0 96.0121812400001,21.8135959900001,0 96.020168639,21.8109335230002,0 96.0278800420001,21.8130810020002,0 96.0329470500001,21.814492068,0 96.0363482440002,21.815439236,0 96.0443356430002,21.8203545590001,0 96.0476125260001,21.825065078,0 96.0440528280001,21.8277871980001,0 96.0440527440001,21.8277872530001,0 96.0383986580002,21.8314663250002,0 96.037317066,21.835630398,0 96.037317172,21.8356306540001,0 96.0397188860002,21.841409946,0 96.0435147360002,21.845006014,0 96.0460055620001,21.8473657450002,0 96.0464938210002,21.8478283060001,0 96.0481316380001,21.8493799220001,0 96.0509891220001,21.8501207510002,0 96.054109119,21.8509296390001,0 96.0545643300001,21.850667018,0 96.0598652150001,21.8476088180001,0 96.066049182,21.8422577350001,0 96.0662357950001,21.8420962560002,0 96.0667292410001,21.8416693730001,0 96.0667358300002,21.8416636730001,0 96.0681362150002,21.840452194,0 96.0681360250001,21.8404512180001,0 96.0691635200001,21.8336613570001,0 96.0672437400001,21.8263645190001,0 96.067243593,21.8263639600002,0 96.0673786740001,21.8231411630001,0 96.0673924150001,21.8228133330001,0 96.0696062960002,21.8214850050002,0 96.0696478440001,21.821495392,0 96.073148508,21.8223705570001,0 96.0762479440001,21.8274624860001,0 96.0761659350002,21.831162986,0 96.076166153,21.8311634060001,0 96.076166153,21.8311634470002,0 96.0784618270001,21.83565385,0 96.0824468160002,21.8349896860001,0 96.0851034730002,21.8325544170002,0 96.0946231680001,21.8263555450001,0 96.1013464980001,21.8224007450001,0 96.1013466150001,21.8224006760001,0 96.1013473220001,21.8223992750001,0 96.1028145330001,21.8194925090002,0 96.1021290530001,21.8184642900001,0 96.101043426,21.8168358520002,0 96.0941803920001,21.8121867,0 96.0877601320001,21.80953004,0 96.082668204,21.8059878280002,0 96.0785388850001,21.797895437,0 96.0785386330001,21.7978949450002,0 96.078600437,21.7972427300001,0 96.078904604,21.794032863,0 96.0828895920001,21.7896050990001,0 96.0899740130001,21.788498159,0 96.0940384410001,21.7912561630001,0 96.0961728850002,21.792704535,0 96.0964681240002,21.799710744,0 96.096468036,21.7997112410002,0 96.0964679720001,21.7997112270002,0 96.0962134360001,21.80114667,0 96.0959072110001,21.8028736110002,0 96.0960624580002,21.806229585,0 96.0975012130001,21.8075375450001,0 96.1013815900001,21.8094777340001,0 96.1019289780001,21.809751428,0 96.1041593860001,21.8094234270001,0 96.1094561780001,21.8086444880001,0 96.1194186500002,21.8088658760001,0 96.1339969280001,21.816682933,0 96.1339969290001,21.8166827240001,0 96.1340302740002,21.8117439210001,0 96.1327370060001,21.8058318480001,0 96.1324836740001,21.8046737610001,0 96.1333661070002,21.8022242280002,0 96.1414356350002,21.7982045060001,0 96.1414357640001,21.7982044420001,0 96.140175582,21.790450295,0 96.1397863670001,21.788055382,0 96.138211959,21.7807228380001,0 96.1382117360001,21.7807217980001,0 96.1404505320001,21.774772086,0 96.1442141320001,21.7723368180002,0 96.1451537730001,21.7723955450001,0 96.151298556,21.772779594,0 96.1617038010001,21.775657639,0 96.1676812850001,21.775657639,0 96.1686306770002,21.783143545,0 96.1686502530002,21.784906205,0 96.16865347,21.7851958990001,0 96.1679948810001,21.788164684,0 96.1679363250001,21.788431168,0 96.1676210910001,21.7902222700001,0 96.1675167080001,21.7908153530001,0 96.1672397000001,21.791868847,0 96.1667802290002,21.793615146,0 96.1662306920001,21.7963500430001,0 96.1662311840001,21.7963503340002,0 96.1716662730001,21.7995675680001,0 96.1800790260002,21.7995675680001,0 96.1844804580002,21.7961024700001,0 96.1846597650002,21.7932758610001,0 96.1846708900001,21.792678946,0 96.1847281780001,21.7896050990001,0 96.190041498,21.7853987230001,0 96.1935837070001,21.7891623230001,0 96.1938344920002,21.7911685990002,0 96.1949120380002,21.7997889560001,0 96.2011109070002,21.8035525560001,0 96.2033247910002,21.8121867,0 96.2032449500001,21.8232120170001,0 96.2032451630001,21.823213577,0 96.20266918,21.826394808,0 96.2026691440002,21.8263950350001,0 96.2014163110002,21.8297780250001,0 96.2014162510002,21.829777928,0 96.2012691920002,21.8301750150001,0 96.2012691680002,21.830175352,0 96.2012691500001,21.8301754,0 96.2012597520001,21.8303061370001,0 96.2010553770002,21.8331448220001,0 96.1991150910002,21.8370279190001,0 96.199072023,21.837114064,0 96.1964693330002,21.8389260690001,0 96.1940896140001,21.8400589080002,0 96.1923916290001,21.8419849830001,0 96.1908051500002,21.8444762080001,0 96.1929329550001,21.8496547040001,0 96.1941470460001,21.8526094710001,0 96.2011783290002,21.8565160880001,0 96.2145660790002,21.8608955,0 96.2154607390002,21.864026805,0 96.212506342,21.870188996,0 96.21249152,21.8702334600001,0 96.2097717380001,21.8783925550001,0 96.2090583350001,21.88112318,0 96.1932771760001,21.8795921720002,0 96.1809061450001,21.8783919960002,0 96.177764275,21.8783919350001,0 96.170445939,21.8793677140001,0 96.1690223460001,21.8795575260002,0 96.1600757580001,21.8800048550001,0 96.1595106630002,21.879915629,0 96.1515764970001,21.8786628660002,0 96.147103202,21.877544542,0 96.1429738020001,21.8752660760002,0 96.1385570730002,21.8731504090002,0 96.136339799,21.8720883080001,0 96.1361798600002,21.86850445,0 96.1358268650001,21.8685716100001,0 96.1327205490001,21.869348661,0 96.131133155,21.8699132980001,0 96.1298588400002,21.8702369410001,0 96.1282117170001,21.8706552680001,0 96.1270452000001,21.8706444700001,0 96.1261193540002,21.8703703800001,0 96.1251743890001,21.870029081,0 96.124859338,21.8699184970001,0 96.124607129,21.869956765,0 96.1224087630001,21.8714655420001,0 96.1209750420002,21.87244953,0 96.1201351520002,21.8730259620001,0 96.1154889980001,21.8762147000001,0 96.1154659620001,21.8762690180002,0 96.1152553280002,21.8764885580001,0 96.1146869570001,21.8768621130001,0 96.1144128080001,21.877012206,0 96.1139265070001,21.8772784500001,0 96.1135271960002,21.877401853,0 96.1130511090001,21.8774334000001,0 96.1124699950002,21.8773684410001,0 96.1119974650002,21.8771930130002,0 96.1111636460002,21.8767989160002,0 96.1086437030002,21.875674614,0 96.1052319190001,21.874152406,0 96.104845658,21.8741013610002,0 96.1047975700001,21.8740950060001,0 96.104647996,21.874104135,0 96.103947051,21.8741469160001,0 96.103266793,21.874383321,0 96.1022145560001,21.8748704520001,0 96.1017805700001,21.8750713650001,0 96.100384362,21.8757177370001,0 96.0940008100001,21.8791110450001,0 96.0931848000001,21.8794787470001,0 96.0927911730001,21.879710614,0 96.0925469460001,21.880145729,0 96.0923417070001,21.8806770590001,0 96.0922351,21.8809577380002,0 96.092147084,21.8811894710001,0 96.09184603,21.8811976640001,0 96.0913238570001,21.8812118750001,0 96.091317039,21.8812120610002,0 96.0876674480002,21.8818053400001,0 96.0872622290001,21.8818290990001,0 96.0835902660001,21.8823396200001,0 96.083321142,21.8824876940001,0 96.0829778720001,21.882758639,0 96.0828087290002,21.8830231170001,0 96.0828048420001,21.8832141030001,0 96.0828265970001,21.8836539140001,0 96.082880796,21.8840083260002,0 96.08287652,21.8842184100001,0 96.0827911700001,21.884388846,0 96.0825803210001,21.8846907960001,0 96.0824420640001,21.8849462680001,0 96.0824476300001,21.8851756320001,0 96.082564189,21.885483386,0 96.0825799870001,21.8857129320002,0 96.0826205650001,21.8859995380001,0 96.0826247310001,21.8860289650001,0 96.0827737350002,21.8862513200001,0 96.0828210060001,21.8864432120002,0 96.0827860350001,21.8866527520001,0 96.0827707500002,21.8869008520001,0 96.0826807330001,21.8873004710002,0 96.0824833440002,21.887946556,0 96.0822691830002,21.8884108420001,0 96.0821689310002,21.8888102780001,0 96.0821526720002,21.8891061240001,0 96.0821474220001,21.8893639550002,0 96.0821213200001,21.8896405210002,0 96.0820255390001,21.889820324,0 96.0820000190001,21.8900682420001,0 96.0820360860001,21.8903077,0 96.0820001400002,21.8905649850001,0 96.0818213350002,21.8908006320001,0 96.0817292240001,21.8910811090001,0 96.0816764530001,21.8912417950001,0 96.081417785,21.891280236,0 96.0811752840002,21.8913623340001,0 96.0809561330002,21.8915686050001,0 96.0809041160001,21.8921121870002,0 96.0807826150001,21.892549456,0 96.0805357980001,21.893108685,0 96.0800586170002,21.8939217490002,0 96.0794958740001,21.8949147920002,0 96.0791876530001,21.8954729290001,0 96.0791200300001,21.8957774140001,0 96.0790618590001,21.8961202780001,0 96.0789404530001,21.8966097020001,0 96.0788476690002,21.8969716400002,0 96.078634648,21.8973786220001,0 96.078184527,21.8978673670001,0 96.0779201460001,21.8982829880002,0 96.0773976130001,21.8988086540001,0 96.0766022100001,21.899663812,0 96.0761837470001,21.9001053480001,0 96.0760635860001,21.9004757660001,0 96.0760789820002,21.9007244100002,0 96.0762911380002,21.9008619190001,0 96.076380697,21.9009876960001,0 96.0762439690001,21.9011667660002,0 96.0745695990001,21.9024552570002,0 96.074365776,21.9049162180001,0 96.0744842780001,21.9051284850001,0 96.0743438360001,21.9054889870001,0 96.0740882940001,21.905971626,0 96.0735891110002,21.9063544010002,0 96.0723156160002,21.9070577310001,0 96.071498224,21.907482596,0 96.069122411,21.9090259970001,0 96.0686908600001,21.9091042770002,0 96.0680294860001,21.9094077200001,0 96.0680442510002,21.910019071,0 96.0680627230001,21.9107838900001,0 96.0695111500002,21.9106640380002,0 96.0706834600002,21.9106079560001,0 96.0741292080002,21.9104431140001,0 96.0742401470002,21.9104378070002,0 96.0772117000001,21.9102996110001,0 96.0771156010001,21.9109952470001,0 96.0771710900001,21.9130405060001,0 96.0772824590002,21.9166104080001,0 96.077386806,21.9200225660002,0 96.0774778900001,21.92259733,0 96.0774874040002,21.9228662730002,0 96.0775162310002,21.9244620810001,0 96.0777004870001,21.9257491650001,0 96.0774360970001,21.9257568730001,0 96.0767373760001,21.9256267850001,0 96.0766736720002,21.9256271210002,0 96.075135829,21.9256352210001,0 96.0747434280001,21.9256372880002,0 96.072596902,21.9256485950002,0 96.07109842,21.9257054750001,0 96.0694085330001,21.925735047,0 96.0672844240001,21.9257210290001,0 96.0656978250002,21.9257498300001,0 96.065645208,21.9255879950001,0 96.065616655,21.9253310130002,0 96.0656038840002,21.9252192730002,0 96.0655881010002,21.92508117,0 96.0655666860001,21.924988371,0 96.0641364030001,21.9249641880001,0 96.0634278900001,21.924952208,0 96.0626113950001,21.9249384020001,0 96.0624757660001,21.9249955090001,0</coordinates>
          </LinearRing>
        </outerBoundaryIs>
      </Polygon>
    </Placemark>
    <Placemark>
      <name>Patheingyi</name>
      <ExtendedData>
        <Data name="adm3_name1"><value>ပုသိမ်ကြီး</value></Data>
        <Data name="adm3_pcode"><value>MMR010007</value></Data>
        <Data name="adm2_name"><value>Mandalay</value></Data>
        <Data name="area_sqkm"><value>591.84753382</value></Data>
        <Data name="center_lat"><value>21.98899566</value></Data>
        <Data name="center_lon"><value>96.21376915</value></Data>
      </ExtendedData>
      <Polygon>
        <outerBoundaryIs>
          <LinearRing>
            <coordinates>96.2226677140002,22.1571498080001,0 96.2132294320002,22.1584744800001,0 96.2099188260001,22.1589391270001,0 96.1974478530001,22.165709083,0 96.1942622910001,22.1674383880002,0 96.1820484410001,22.1674383880002,0 96.1781584290001,22.1674383880002,0 96.1761454480001,22.1551368270001,0 96.1734614720001,22.152005521,0 96.1663041980001,22.1497688720001,0 96.1518055000001,22.1414534410002,0 96.1510949960001,22.1410459460001,0 96.145056049,22.1388093000002,0 96.1457270410001,22.133441345,0 96.147802209,22.1324421910001,0 96.1517659910001,22.130533704,0 96.1648288800001,22.1284433700001,0 96.1633717070001,22.123277026,0 96.161696519,22.118809863,0 96.1606877280001,22.1161197550002,0 96.158227417,22.112317454,0 96.152188467,22.1118701240002,0 96.1515174750002,22.1091861480002,0 96.1501754860002,22.1040418580001,0 96.149055681,22.101503634,0 96.1468205150002,22.096437257,0 96.1451008680001,22.0904846400002,0 96.1388016820001,22.0909427620001,0 96.1345189540001,22.0928586220001,0 96.134020809,22.0857981630001,0 96.1333825240001,22.0767514120002,0 96.1332720520002,22.0751856400001,0 96.1315772830002,22.0738727750002,0 96.1264670230001,22.0758601000002,0 96.1261363450001,22.064451682,0 96.124846336,22.0646170680002,0 96.1147552300002,22.0659107990001,0 96.11469127,22.0656478570001,0 96.112981311,22.0586180230001,0 96.10627984,22.054478879,0 96.1019300650001,22.0559978480001,0 96.1019064120002,22.0559906810001,0 96.0903145730001,22.0599977370002,0 96.0866422720001,22.0613343170001,0 96.0809778640001,22.0552167580001,0 96.079210829,22.053308361,0 96.0790127960001,22.0533983760001,0 96.071134848,22.0586503410001,0 96.065170456,22.0553699240002,0 96.0651493810001,22.055367395,0 96.0589549670001,22.054624065,0 96.0577149650001,22.0544752650001,0 96.0562973270001,22.053888656,0 96.0490665940002,22.0508966290001,0 96.0478737150002,22.0479144310002,0 96.0514523510001,22.044335796,0 96.0542294240001,22.0406330320001,0 96.0595582060001,22.033527992,0 96.0613284770002,22.0248827370002,0 96.0599470800002,22.0243973300001,0 96.0468752240001,22.0198040320001,0 96.0465266590001,22.0196118060001,0 96.0417421500001,22.0169732370001,0 96.0389271250001,22.017496027,0 96.0308751940001,22.0127245130001,0 96.0254852330001,22.0076182320001,0 96.025001123,22.0077345050001,0 96.0187587180002,22.0190828410001,0 96.0187587740002,22.0190830230001,0 96.018900047,22.020894103,0 96.0187586440002,22.0190830200002,0 96.0187586420002,22.0190829790001,0 96.0162675980001,22.011037609,0 96.0162181020001,22.0101316170002,0 96.0162180260001,22.010130223,0 96.0162179980001,22.0101297100001,0 96.0162026400001,22.0098476700001,0 96.0158943160001,22.0090617850001,0 96.015179207,22.0072387440002,0 96.0136719120001,22.00339617,0 96.015234697,21.9916767550002,0 96.0179692670001,21.9850357910001,0 96.01915015,21.9836465150001,0 96.019518191,21.983213526,0 96.0211522860001,21.981291062,0 96.0227485820001,21.9794130670001,0 96.0246101750002,21.9772229570001,0 96.0244423500001,21.9738648120002,0 96.0242197170001,21.9694099880002,0 96.0207042580002,21.9592530700002,0 96.019878533,21.9580461340001,0 96.0188199990002,21.9564989070001,0 96.0156262140002,21.9518306560001,0 96.0156269970001,21.9518228070001,0 96.0157004710002,21.9510139850001,0 96.0164076680002,21.943236411,0 96.0165065960002,21.9430055830001,0 96.0187515780001,21.937767384,0 96.0143876950001,21.9306467210002,0 96.0136524160001,21.9263580780001,0 96.0131326320001,21.923326351,0 96.0127428270001,21.9210527390001,0 96.0127429960002,21.9210529330001,0 96.0127430770001,21.9210529940001,0 96.01274583,21.9210550060001,0 96.0204562020001,21.9270382830001,0 96.0223904060001,21.9283324090002,0 96.0232971290001,21.9287641820001,0 96.0362806370002,21.934946804,0 96.0407129400002,21.9393791070001,0 96.0423321270001,21.940998294,0 96.0435424250001,21.9473523600001,0 96.0437845580001,21.9491280040002,0 96.0441618980001,21.951895169,0 96.0492116770002,21.9533731530001,0 96.0495939460001,21.9534416510001,0 96.0497668260001,21.9541060200001,0 96.0500047720002,21.9550578040001,0 96.0502546150001,21.9559025130001,0 96.0506591240002,21.956735324,0 96.0510993240001,21.9575205460002,0 96.0513848590001,21.9582462820002,0 96.0518369570001,21.9590552990001,0 96.0522652600002,21.9602450290001,0 96.0526340760001,21.96112543,0 96.0528363300002,21.961767884,0 96.052975529,21.9619536810001,0 96.0532420280002,21.96248668,0 96.053755992,21.9632290720002,0 96.0545554910002,21.9644092840001,0 96.0549171690001,21.9654943190001,0 96.0553740260002,21.96676971,0 96.0556405250001,21.9678928150001,0 96.0558689530002,21.9687113500001,0 96.0559641320002,21.9694918130001,0 96.0561164170001,21.9704816690001,0 96.0561617380001,21.9712823330001,0 96.056173524,21.9714905600002,0 96.0561909340001,21.9714906470001,0 96.0563974870002,21.9720490670001,0 96.056725853,21.973005611,0 96.0568543440001,21.973976431,0 96.0569971110001,21.9748901440001,0 96.0571827090001,21.9756468120002,0 96.057368307,21.9762892670001,0 96.0575253520002,21.9771744260001,0 96.0576823960002,21.9779882020001,0 96.0579251010001,21.9792588340001,0 96.058067869,21.979986949,0 96.0581963600001,21.9806865110002,0 96.0584444190001,21.981614501,0 96.0586728470002,21.9822997850001,0 96.0590154890001,21.9828708560001,0 96.059258194,21.983370543,0 96.0593866850001,21.9838416760002,0 96.0595294530002,21.9844127470001,0 96.0595404900001,21.9844121760001,0 96.0596292760002,21.9845958470002,0 96.0597082100001,21.9847591370001,0 96.0597389870001,21.9848860920001,0 96.0599366380002,21.9857014030001,0 96.060322111,21.987014866,0 96.0606219230002,21.9879571320001,0 96.0608360740002,21.9890849970001,0 96.0607932440002,21.990127201,0 96.0616696590001,21.9901316620001,0 96.061674505,21.9901481860001,0 96.0618516220002,21.9905000270002,0 96.0631677350001,21.9914979690001,0 96.0637735240001,21.992172721,0 96.0639811690001,21.9925346610001,0 96.0641758230002,21.9930301020001,0 96.0644989650001,21.9937523290001,0 96.064964878,21.9947541360002,0 96.0653501510002,21.9954440400001,0 96.0655774960001,21.9958445410001,0 96.0658350690002,21.9962694640001,0 96.0664597080001,21.997274109,0 96.0672632620002,21.9985446500001,0 96.0676186230002,21.9991958050001,0 96.0680116050002,22.0000100270001,0 96.0683809560001,22.0007282990002,0 96.0688115520002,22.0014572200002,0 96.0693033950001,22.0021967870002,0 96.0697291750001,22.0029112910001,0 96.0702796200001,22.0037904160001,0 96.0705071310001,22.0042687680001,0 96.0705545580001,22.0043684850001,0 96.0714173010001,22.0062514330001,0 96.0715032780001,22.0065538760002,0 96.0716878470002,22.007292722,0 96.0717723540002,22.0076667820001,0 96.0718443790002,22.00839884,0 96.0718934550002,22.009001528,0 96.0719916710001,22.0097053970001,0 96.0720829680001,22.009998382,0 96.0723419080001,22.0111063300001,0 96.072438817,22.011375534,0 96.0726438400002,22.0116180120002,0 96.0728441360001,22.0118413000001,0 96.073873485,22.0128483830001,0 96.0745571940002,22.0134767370002,0 96.0746052590002,22.013630436,0 96.0750184060002,22.014757534,0 96.075157275,22.0151286390001,0 96.0765296240002,22.0187960190001,0 96.0771312510001,22.0187724420001,0 96.0776082770001,22.0187537470002,0 96.0795963150002,22.0186522280001,0 96.0816469220001,22.0185096740001,0 96.0819879110002,22.0185551550001,0 96.0821899850002,22.0186304010001,0 96.0824444310001,22.0187746410002,0 96.0829707650001,22.0191494050001,0 96.0833487190001,22.0194534630002,0 96.0836090880001,22.019683781,0 96.0837779470001,22.019880228,0 96.083940079,22.0200299870001,0 96.084162092,22.020069763,0 96.0864626020001,22.0201071300002,0 96.087228092,22.0201165080001,0 96.0897004860001,22.0201467970002,0 96.0899609070001,22.0201872480001,0 96.0900819720001,22.0202789550001,0 96.090228531,22.020439179,0 96.0905973960001,22.0210009810002,0 96.0908816990001,22.0215648630001,0 96.090980914,22.021745442,0 96.0913706480001,22.0224547830002,0 96.0915308900001,22.0226976400001,0 96.0917706330001,22.0229639860001,0 96.0927769540001,22.0239520640001,0 96.0928689760001,22.0240802680001,0 96.093271518,22.024702018,0 96.0935362340001,22.0251898070002,0 96.0937117190001,22.0255645720002,0 96.0938637190001,22.0259632620001,0 96.0938931530002,22.0260404640001,0 96.093943558,22.0261483730001,0 96.093969106,22.0261389060001,0 96.0942320940001,22.0260414610001,0 96.0945462550001,22.0259250540001,0 96.094720253,22.0258708260001,0 96.0955129950001,22.025619805,0 96.0959324290002,22.0255878410001,0 96.0968418650001,22.025454709,0 96.0983179500001,22.0251231870001,0 96.1034650830001,22.0239671630001,0 96.1044232350002,22.023810762,0 96.1082827280002,22.0236009540001,0 96.1082972470001,22.0236000390001,0 96.1120142530001,22.0233659030001,0 96.1125567540001,22.0233393300001,0 96.1204058680001,22.0229548620001,0 96.1258774880001,22.0226715740001,0 96.1266068360001,22.0226338120002,0 96.1273287610002,22.022596435,0 96.127753548,22.0224892530002,0 96.1280416590002,22.022300861,0 96.1280701940001,22.022259697,0 96.1282870040001,22.0219469300002,0 96.1283785780001,22.021597468,0 96.128356646,22.0206864360001,0 96.1282933980002,22.0180592180002,0 96.1282765860002,22.017360895,0 96.1282042670001,22.0152793590001,0 96.12808621,22.011881375,0 96.1278180710001,22.0113419790001,0 96.1272057350001,22.0107940730001,0 96.1259072240001,22.0095773560001,0 96.1255693740002,22.0092607880002,0 96.1247203620001,22.008413698,0 96.1243437490001,22.0079353100001,0 96.1240692570001,22.007450459,0 96.1240342970001,22.0054610710001,0 96.1239870140002,22.0027704940001,0 96.1239620390002,22.0004962540001,0 96.1239613860002,22.000436775,0 96.1239135930001,21.9960846110002,0 96.123815942,21.995763025,0 96.1236544130001,21.9954088160001,0 96.1235104670001,21.9950306400001,0 96.123449671,21.9943290510001,0 96.1234900080001,21.9919932840002,0 96.1237059060002,21.9919540840001,0 96.1237771690001,21.9914681370001,0 96.124965171,21.990442557,0 96.1260765670002,21.9894014740001,0 96.1269990950001,21.9879978270001,0 96.127361307,21.9870673880001,0 96.127607448,21.986670479,0 96.1286356590001,21.9855851270001,0 96.1289904580001,21.9851328000001,0 96.1290356310002,21.9847968500002,0 96.1288281590001,21.9842885330001,0 96.1283155980002,21.983640012,0 96.128041673,21.983185058,0 96.1280425370001,21.9830114030001,0 96.1280435420001,21.9828094190001,0 96.1282350980001,21.9822611230001,0 96.1285931870001,21.9815291670001,0 96.1286793250002,21.9813530970001,0 96.1292774110001,21.9801305720001,0 96.1301793350002,21.9785456590001,0 96.1306665330001,21.9777548820002,0 96.130824297,21.9776054530001,0 96.1314681680001,21.9771071650001,0 96.1318057000001,21.9770049340001,0 96.1323710910001,21.9769170180001,0 96.1326498060002,21.976752167,0 96.1328180850002,21.9764913310001,0 96.1328184070002,21.9764517670001,0 96.132821828,21.976031616,0 96.1326590350001,21.9750745520001,0 96.1318353480001,21.9686952490001,0 96.1315991680001,21.9668660770001,0 96.1313207340002,21.964709649,0 96.1310436120002,21.9625085440001,0 96.1301402560002,21.95533341,0 96.129967697,21.954251748,0 96.1297567600001,21.952929517,0 96.1296741380002,21.9524116070002,0 96.1292369910001,21.9512337260001,0 96.129190533,21.9501972260002,0 96.129166286,21.9496562520001,0 96.1294137920001,21.9481679300001,0 96.1299667030002,21.9467685340001,0 96.1305751900001,21.9457880490001,0 96.1317070780001,21.9448764100001,0 96.133538035,21.9435709660001,0 96.1345156560002,21.9431559630001,0 96.1360921980001,21.942821801,0 96.1365917740002,21.9427159110001,0 96.1372553250001,21.9425752660001,0 96.1382165830001,21.9423715180001,0 96.1390478230001,21.942195329,0 96.1390271790002,21.9417359660001,0 96.138517516,21.9303952120001,0 96.1384530950001,21.9277191000002,0 96.1384516550002,21.9276592780002,0 96.1381491640001,21.9150933830001,0 96.1380352100001,21.9103595780002,0 96.1380328390001,21.9102968230001,0 96.1380314280001,21.9102594660001,0 96.1380279950001,21.9101685970001,0 96.1379573390001,21.908298444,0 96.137897792,21.9082951820001,0 96.137870793,21.9075973400001,0 96.1378967130001,21.9074828880002,0 96.1378742410002,21.906945529,0 96.1378472500002,21.9063000890001,0 96.1377701720002,21.9044568980001,0 96.1377422650001,21.9037895760001,0 96.1377244750002,21.9033641580001,0 96.1377313630001,21.9033055940001,0 96.1377206120002,21.9032717780001,0 96.1376790940001,21.9022789390001,0 96.1376111440002,21.9006540510001,0 96.1375621070001,21.899481428,0 96.1375574500001,21.8994584280001,0 96.1375519060001,21.899248821,0 96.1375082660002,21.8975988940001,0 96.1374869610001,21.8967934020002,0 96.137204925,21.8924693480002,0 96.1372124770001,21.892468725,0 96.1370981700002,21.8890816370001,0 96.136339799,21.8720883080001,0 96.1385570730002,21.8731504090002,0 96.1429738020001,21.8752660760002,0 96.147103202,21.877544542,0 96.1515764970001,21.8786628660002,0 96.1595106630002,21.879915629,0 96.1600757580001,21.8800048550001,0 96.1690223460001,21.8795575260002,0 96.170445939,21.8793677140001,0 96.177764275,21.8783919350001,0 96.1809061450001,21.8783919960002,0 96.1932771760001,21.8795921720002,0 96.2090583350001,21.88112318,0 96.2097717380001,21.8783925550001,0 96.21249152,21.8702334600001,0 96.212506342,21.870188996,0 96.2154607390002,21.864026805,0 96.2145660790002,21.8608955,0 96.2011783290002,21.8565160880001,0 96.1941470460001,21.8526094710001,0 96.1929329550001,21.8496547040001,0 96.1908051500002,21.8444762080001,0 96.1923916290001,21.8419849830001,0 96.1940896140001,21.8400589080002,0 96.1964693330002,21.8389260690001,0 96.199072023,21.837114064,0 96.1991150910002,21.8370279190001,0 96.2010553770002,21.8331448220001,0 96.2012597520001,21.8303061370001,0 96.2012691500001,21.8301754,0 96.2012691680002,21.830175352,0 96.2012691920002,21.8301750150001,0 96.2014162510002,21.829777928,0 96.2014163110002,21.8297780250001,0 96.2035461790002,21.833218581,0 96.2099664390001,21.8369821810001,0 96.234097756,21.837867734,0 96.2369758010002,21.8429596620002,0 96.2393987740001,21.8450874490001,0 96.2468795940001,21.8439394250001,0 96.2479760030001,21.8437711670001,0 96.2511073080001,21.8417581830001,0 96.2502126490001,21.8390742070001,0 96.2421607180002,21.8361665660001,0 96.2419697180001,21.8354789640001,0 96.2412121440001,21.8327516950001,0 96.2410423960001,21.8321406000001,0 96.2493179920001,21.823865004,0 96.2567689540002,21.817754709,0 96.2573699230001,21.8104451190001,0 96.2586544270001,21.8141273630001,0 96.2607248940001,21.8200627040002,0 96.2611722230001,21.82654898,0 96.2598925400002,21.8295349070001,0 96.2598925120002,21.8295349730001,0 96.2602350710002,21.8313798630001,0 96.2603166090002,21.8318189960002,0 96.2610009700001,21.834781511,0 96.2584882450001,21.8439948320002,0 96.258040915,21.8509284380002,0 96.2520019680001,21.8556253980001,0 96.2457393540001,21.861217018,0 96.2437284120002,21.8700428250001,0 96.2435786820002,21.8706999730001,0 96.2432075770001,21.8710954090001,0 96.2420668930001,21.8739553780001,0 96.2420671570001,21.873955476,0 96.2461400880001,21.8754709840001,0 96.2518062620001,21.8766638630001,0 96.2616475090002,21.8695065910001,0 96.2631386090001,21.8701030290001,0 96.2670333340002,21.875641031,0 96.2670727760001,21.8756387600001,0 96.2673543650002,21.8760443120001,0 96.2673542340001,21.876044457,0 96.262442761,21.8815016490001,0 96.2648285180002,21.8862731630001,0 96.2656542590002,21.8997602280002,0 96.2656543820002,21.8997606590001,0 96.2675124970002,21.9062538800001,0 96.2728804490002,21.912218275,0 96.2722730610002,21.9174823130001,0 96.2725429530001,21.917985916,0 96.2780628200001,21.926046371,0 96.2785777910001,21.9267392410002,0 96.278582977,21.9267462180001,0 96.2841468300001,21.9342327220002,0 96.2852727440001,21.9363065660002,0 96.2852731620002,21.9363065780001,0 96.2882014850001,21.9363927050001,0 96.2913327910002,21.9406423350001,0 96.291780121,21.9457866250002,0 96.2907393400002,21.946641553,0 96.2907391140001,21.946641739,0 96.2909682080001,21.9471357730001,0 96.2897671390001,21.952049237,0 96.2915564560001,21.9540622210001,0 96.2895434740002,21.9565225320002,0 96.2911351860001,21.9620050980001,0 96.2911354100001,21.9620055370001,0 96.292898445,21.9654691220001,0 96.2899908040001,21.969047758,0 96.285578418,21.9706316920002,0 96.2855780660001,21.9706318180002,0 96.2852184880001,21.9734060550001,0 96.2852180910002,21.9734091100001,0 96.2850933070001,21.9743709560001,0 96.2863365760001,21.977619497,0 96.2863398300001,21.977627999,0 96.2863412630002,21.9776317440001,0 96.287339955,21.9802414470001,0 96.2873400650002,21.980241516,0 96.2873401640001,21.980241776,0 96.301053634,21.9889063250001,0 96.305202349,21.9915275970001,0 96.3092259720001,21.990072244,0 96.322645857,21.99499287,0 96.3303431710001,22.0004909490001,0 96.3304741230001,22.0005844860001,0 96.3336054290002,22.003268465,0 96.3353947460001,22.012438718,0 96.3400917060001,22.017583008,0 96.3454596610001,22.0231746270001,0 96.3456833250001,22.0292135740001,0 96.347696307,22.0352525240001,0 96.3517222720002,22.04129147,0 96.358655881,22.0450937710002,0 96.3595505380001,22.050909056,0 96.358883691,22.0552065300001,0 96.3628251950002,22.0626425520001,0 96.362825261,22.0626428000001,0 96.3628253940001,22.062643051,0 96.3651065830001,22.0711841580002,0 96.3655108160001,22.079896524,0 96.357101787,22.080348101,0 96.3571015140001,22.0803481160001,0 96.3541428630002,22.0769445370001,0 96.3529768170002,22.0761161690001,0 96.3529769840001,22.076115956,0 96.3564192320001,22.071709877,0 96.341433695,22.0690258990001,0 96.3327107700001,22.0652235980001,0 96.3148175920001,22.068354904,0 96.306094666,22.066341923,0 96.3018450360001,22.0710388830001,0 96.2955824210001,22.0732755290001,0 96.2958060860002,22.081551125,0 96.2961515430001,22.085629971,0 96.2959858160002,22.088506701,0 96.2897671390001,22.0916160400001,0 96.2790312300001,22.093629021,0 96.2698609770001,22.0963130000001,0 96.263822028,22.0916160400001,0 96.2571120860002,22.0929580260002,0 96.2533097860002,22.0960893350002,0 96.2463761790002,22.1001153000001,0 96.2401135650001,22.1005626270001,0 96.2401135650001,22.1036939360001,0 96.24141912,22.107175416,0 96.2414191660001,22.107175526,0 96.2448105250001,22.1153245020002,0 96.2436922010001,22.1224817740001,0 96.2436922010001,22.1281251170001,0 96.2436922010001,22.1307573690002,0 96.2423843650001,22.1391856560001,0 96.2423843110001,22.1391860040001,0 96.2438640490001,22.1441821670002,0 96.243864068,22.144182201,0 96.2491398940001,22.1532608160001,0 96.2566647560001,22.159162792,0 96.2559937620002,22.1629650930001,0 96.2549075410001,22.1641519190001,0 96.2549075070001,22.164151954,0 96.2519677960001,22.167214723,0 96.248796703,22.1641342330001,0 96.2441395300001,22.1596101220001,0 96.236982259,22.1578208030001,0 96.233179959,22.1531238430002,0 96.2226677140002,22.1571498080001,0</coordinates>
          </LinearRing>
        </outerBoundaryIs>
      </Polygon>
    </Placemark>
  </Document>
</kml>
