{
"type": "FeatureCollection",
"name": "mandalay_townships",
"crs": { "type": "name", "properties": { "name": "urn:ogc:def:crs:OGC:1.3:CRS84" } },
"features": [
{ "type": "Feature", "properties": { "adm3_pcode": "MMR010001", "adm3_name": "Aungmyaythazan", "adm3_name1": "အောင်မြေသာစံ", "adm2_pcode": "MMR010D001", "adm2_name": "Mandalay", "area_sqkm": 26.09703332, "center_lat": 22.00335085, "center_lon": 96.09700081 }, "geometry": { "type": "Polygon", "coordinates": [ [ [ 96.128356646000043, 22.020686436000119 ], [ 96.128378578000081, 22.021597468000039 ], [ 96.128287004000128, 22.021946930000183 ], [ 96.128070194000145, 22.022259697000038 ], [ 96.128041659000189, 22.022300861000019 ], [ 96.127753548000044, 22.022489253000174 ], [ 96.127328761000172, 22.022596434999969 ], [ 96.126606836000065, 22.022633812000151 ], [ 96.125877488000071, 22.022671574000071 ], [ 96.120405868000148, 22.022954862000063 ], [ 96.112556754000138, 22.023339330000056 ], [ 96.112014253000098, 22.023365903000069 ], [ 96.108297247000053, 22.023600039000087 ], [ 96.108282728000177, 22.023600954000074 ], [ 96.104423235000183, 22.023810761999982 ], [ 96.103465083000117, 22.023967163000066 ], [ 96.098317950000137, 22.025123187000133 ], [ 96.096841865000101, 22.02545470900003 ], [ 96.095932429000186, 22.025587841000061 ], [ 96.095512995000092, 22.025619805000019 ], [ 96.094720253000048, 22.02587082600013 ], [ 96.094546255000068, 22.02592505400014 ], [ 96.094232094000063, 22.026041461000091 ], [ 96.093969105999975, 22.026138906000085 ], [ 96.093943558000035, 22.026148373000069 ], [ 96.093893153000181, 22.026040464000118 ], [ 96.093863719000069, 22.025963262000118 ], [ 96.093711719000112, 22.025564572000178 ], [ 96.093536234000055, 22.025189807000174 ], [ 96.093271518, 22.024702018000028 ], [ 96.092868976000091, 22.024080268000091 ], [ 96.092776954000101, 22.023952064000127 ], [ 96.091770633000067, 22.022963986000093 ], [ 96.091530890000058, 22.022697640000104 ], [ 96.091370648000122, 22.022454783000171 ], [ 96.090980914, 22.021745442 ], [ 96.090881699000079, 22.021564863000094 ], [ 96.090597396000078, 22.021000981000157 ], [ 96.090228531000037, 22.020439179 ], [ 96.090081972000064, 22.020278955000094 ], [ 96.089960907000091, 22.02018724800007 ], [ 96.08970048600014, 22.020146797000166 ], [ 96.087228092000032, 22.020116508000058 ], [ 96.086462602000097, 22.020107130000156 ], [ 96.084162091999985, 22.020069762999981 ], [ 96.083940079, 22.0200299870001 ], [ 96.083777947000101, 22.019880228000034 ], [ 96.08360908800006, 22.019683781000026 ], [ 96.083348719000128, 22.019453463000161 ], [ 96.082970765000084, 22.019149405000064 ], [ 96.082444431000056, 22.018774641000164 ], [ 96.082189985000184, 22.018630401000109 ], [ 96.081987911000169, 22.018555155000115 ], [ 96.081646922000061, 22.018509674000143 ], [ 96.079596315000174, 22.018652228000064 ], [ 96.077608277000138, 22.018753747000176 ], [ 96.077131251000139, 22.018772442000056 ], [ 96.076529624000159, 22.018796019000149 ], [ 96.075157275000038, 22.015128639000068 ], [ 96.075018406000197, 22.014757534000012 ], [ 96.07460525900018, 22.013630436000028 ], [ 96.074557194000192, 22.01347673700019 ], [ 96.073873485000036, 22.012848383000062 ], [ 96.072844136000072, 22.011841300000128 ], [ 96.072643840000183, 22.011618012000156 ], [ 96.072438816999977, 22.011375533999967 ], [ 96.072341908000055, 22.011106330000075 ], [ 96.072082968000132, 22.009998382000049 ], [ 96.071991671000148, 22.009705397000062 ], [ 96.071893455000179, 22.009001528 ], [ 96.071844379000197, 22.008398840000041 ], [ 96.071772354000188, 22.007666782000058 ], [ 96.071687847000192, 22.007292722000045 ], [ 96.071503278000137, 22.006553876000169 ], [ 96.071417301000054, 22.006251433000102 ], [ 96.07055455800014, 22.0043684850001 ], [ 96.070507131000056, 22.004268768000088 ], [ 96.070279620000122, 22.003790416000129 ], [ 96.069729175000134, 22.002911291000146 ], [ 96.069303395000077, 22.002196787000173 ], [ 96.06881155200017, 22.001457220000191 ], [ 96.068380956000055, 22.000728299000173 ], [ 96.068011605000152, 22.000010027000087 ], [ 96.067618623000158, 21.999195805000056 ], [ 96.067263262000154, 21.998544650000099 ], [ 96.066459708000082, 21.997274109000045 ], [ 96.065835069000173, 21.996269464000136 ], [ 96.065577496000117, 21.995844541000054 ], [ 96.065350151000189, 21.995444040000052 ], [ 96.064964878000012, 21.994754136000154 ], [ 96.064498965000098, 21.993752329000131 ], [ 96.064175823000198, 21.993030102000148 ], [ 96.063981169000101, 21.992534661000093 ], [ 96.063773524000055, 21.992172720999974 ], [ 96.063167735000093, 21.991497969000136 ], [ 96.061851622000177, 21.990500027000166 ], [ 96.061674505000042, 21.990148186000056 ], [ 96.061669659000131, 21.990131662000124 ], [ 96.060793244000195, 21.990127201 ], [ 96.060836074000179, 21.989084997000134 ], [ 96.060621923000156, 21.987957132000133 ], [ 96.060322111, 21.987014865999981 ], [ 96.059936638000181, 21.985701403000121 ], [ 96.059738987000117, 21.984886092000067 ], [ 96.05970821000011, 21.98475913700014 ], [ 96.05962927600018, 21.984595847000151 ], [ 96.059540490000131, 21.984412176000149 ], [ 96.060194039000066, 21.984378387000106 ], [ 96.060370355000089, 21.984366967000028 ], [ 96.060467377000123, 21.984360683000034 ], [ 96.061655193000036, 21.984283748000166 ], [ 96.06195751000007, 21.984162666000088 ], [ 96.065783577, 21.984048950000101 ], [ 96.068976068000097, 21.983913430000086 ], [ 96.068989635000094, 21.983912854000039 ], [ 96.071028086000069, 21.98386140700012 ], [ 96.071648878000076, 21.98384573900006 ], [ 96.073119356000063, 21.983799963000024 ], [ 96.073155023000083, 21.98379885300011 ], [ 96.076189481000199, 21.983704391000117 ], [ 96.076330024000185, 21.983700015000068 ], [ 96.077801527000133, 21.983603151000068 ], [ 96.081173857000124, 21.983381161000182 ], [ 96.081222542000148, 21.98337795599997 ], [ 96.08444379700012, 21.983165911000128 ], [ 96.084449747000065, 21.983165519000067 ], [ 96.084468243, 21.983164302000091 ], [ 96.09093142200004, 21.982770203000086 ], [ 96.093113264000067, 21.982637163000049 ], [ 96.095878036000045, 21.982489584 ], [ 96.100827954000124, 21.982225366000023 ], [ 96.101580060000174, 21.982185220000076 ], [ 96.106633266000131, 21.981929032000039 ], [ 96.109546559000023, 21.981781333000129 ], [ 96.113183818000152, 21.981594645000143 ], [ 96.1135125670001, 21.981672079000134 ], [ 96.116518564000046, 21.981669944000089 ], [ 96.119746367000062, 21.981480778000048 ], [ 96.123674428000072, 21.981349115000057 ], [ 96.127185043000168, 21.981335130000105 ], [ 96.128337670000064, 21.981330539000169 ], [ 96.128679325000178, 21.981353097000067 ], [ 96.128593187000149, 21.981529167000076 ], [ 96.128235098000118, 21.982261123000058 ], [ 96.128043542000057, 21.982809419000091 ], [ 96.128042537000056, 21.983011403000148 ], [ 96.128041672999984, 21.983185058 ], [ 96.128315598000199, 21.983640012000023 ], [ 96.128828159000079, 21.984288533000097 ], [ 96.129035631000193, 21.98479685000018 ], [ 96.128990458000089, 21.985132800000088 ], [ 96.128635659000111, 21.985585127000093 ], [ 96.127607448000049, 21.986670479 ], [ 96.127361307, 21.987067388000071 ], [ 96.126999095000087, 21.987997827000072 ], [ 96.126076567000155, 21.98940147400009 ], [ 96.124965170999985, 21.990442557 ], [ 96.123777169000107, 21.99146813700014 ], [ 96.123705906000168, 21.991954084000099 ], [ 96.12349000800009, 21.991993284000159 ], [ 96.123449671, 21.994329051000079 ], [ 96.123510467000074, 21.995030640000095 ], [ 96.123654413000111, 21.995408816000122 ], [ 96.123815942000022, 21.995763025000031 ], [ 96.123913593000054, 21.996084611000185 ], [ 96.12396138600019, 22.000436775000026 ], [ 96.123962039000162, 22.000496254000097 ], [ 96.123987014000193, 22.002770494000117 ], [ 96.124034297000094, 22.00546107100007 ], [ 96.124069257000144, 22.00745045900004 ], [ 96.124343749000104, 22.007935310000107 ], [ 96.124720362000119, 22.008413698000027 ], [ 96.125569374000179, 22.009260788000176 ], [ 96.125907224000059, 22.009577356000079 ], [ 96.127205735000132, 22.010794073000113 ], [ 96.127818071000149, 22.011341979000122 ], [ 96.128086210000049, 22.011881374999973 ], [ 96.128204267000115, 22.015279359000147 ], [ 96.128276586000197, 22.017360895000024 ], [ 96.128293398000153, 22.01805921800019 ], [ 96.128356646000043, 22.020686436000119 ] ] ] } },
{ "type": "Feature", "properties": { "adm3_pcode": "MMR010002", "adm3_name": "Chanayethazan", "adm3_name1": "ချမ်းအေးသာစံ", "adm2_pcode": "MMR010D001", "adm2_name": "Mandalay", "area_sqkm": 11.78208223, "center_lat": 21.97536068, "center_lon": 96.09491012 }, "geometry": { "type": "Polygon", "coordinates": [ [ [ 96.059540490000131, 21.984412176000149 ], [ 96.059529453000152, 21.984412747000079 ], [ 96.059386685000106, 21.983841676000168 ], [ 96.059258194, 21.983370542999978 ], [ 96.059015489000103, 21.982870856000147 ], [ 96.058672847000196, 21.982299785000066 ], [ 96.058444419000125, 21.981614501000024 ], [ 96.058196360000068, 21.980686511000158 ], [ 96.058067869000013, 21.979986949000022 ], [ 96.057925101000137, 21.979258834000063 ], [ 96.057682396000189, 21.977988202000063 ], [ 96.057525352000198, 21.97717442600009 ], [ 96.057368307000047, 21.976289267000141 ], [ 96.057182709000131, 21.97564681200015 ], [ 96.056997111000101, 21.974890144000085 ], [ 96.056854344000101, 21.97397643100004 ], [ 96.056725852999989, 21.973005611000019 ], [ 96.056397487000197, 21.972049067000114 ], [ 96.056190934000085, 21.97149064700011 ], [ 96.056586316000107, 21.971492607000073 ], [ 96.056589553000094, 21.971492623000074 ], [ 96.057111897000141, 21.971436678000146 ], [ 96.060675054000171, 21.971055052 ], [ 96.070125170000154, 21.970017691000066 ], [ 96.0717037940002, 21.969838726000091 ], [ 96.071785027000089, 21.969842417000166 ], [ 96.073780834000104, 21.969933105 ], [ 96.074410735000072, 21.969930011000088 ], [ 96.077008240000168, 21.969751577000068 ], [ 96.078661726000178, 21.969637992 ], [ 96.078694135000092, 21.969636053000102 ], [ 96.081322804000081, 21.969478747999972 ], [ 96.081343704000062, 21.96947749800006 ], [ 96.083575364000126, 21.969343951000099 ], [ 96.083583567000176, 21.969343460000175 ], [ 96.088115208000033, 21.969099169000117 ], [ 96.090055069000073, 21.968955705000155 ], [ 96.090771712000105, 21.968902706000108 ], [ 96.093423485000073, 21.96868701 ], [ 96.095030727000164, 21.968570209000063 ], [ 96.09722863900015, 21.96841048400006 ], [ 96.099968059000105, 21.968201309000051 ], [ 96.101444362000166, 21.968088582000064 ], [ 96.103046287000097, 21.967972589000169 ], [ 96.103386905000036, 21.96794792500009 ], [ 96.103777691000062, 21.96791962900005 ], [ 96.103787042000192, 21.967919194999979 ], [ 96.104357051000193, 21.967892752000012 ], [ 96.105678050000165, 21.967831469000032 ], [ 96.106612085000052, 21.967788139000163 ], [ 96.10879161400004, 21.967698336000126 ], [ 96.110753041000066, 21.967617519999976 ], [ 96.113812281000037, 21.967508968000061 ], [ 96.115690468000082, 21.967438897000022 ], [ 96.116555696000091, 21.967406617000051 ], [ 96.118685724000102, 21.967327149000027 ], [ 96.123702694000087, 21.967138147000014 ], [ 96.126598028000046, 21.967029001000071 ], [ 96.126670206000142, 21.967026280000084 ], [ 96.12880678800019, 21.966945738 ], [ 96.130006753000089, 21.966911505000098 ], [ 96.131341414000076, 21.966873430000078 ], [ 96.131599168000093, 21.966866077000077 ], [ 96.131835348000095, 21.968695249000064 ], [ 96.132659035000131, 21.975074552000081 ], [ 96.132821828000033, 21.976031616 ], [ 96.132818407000173, 21.976451767000071 ], [ 96.132818085000167, 21.976491331000148 ], [ 96.132649806000188, 21.976752167000029 ], [ 96.132371091000095, 21.976917018000108 ], [ 96.131805700000143, 21.977004934000092 ], [ 96.131468168000083, 21.97710716500012 ], [ 96.130824297, 21.977605453000137 ], [ 96.130666533000124, 21.97775488200017 ], [ 96.13017933500015, 21.978545659000133 ], [ 96.129277411000089, 21.980130572000064 ], [ 96.128679325000178, 21.981353097000067 ], [ 96.128337670000064, 21.981330539000169 ], [ 96.127185043000168, 21.981335130000105 ], [ 96.123674428000072, 21.981349115000057 ], [ 96.119746367000062, 21.981480778000048 ], [ 96.116518564000046, 21.981669944000089 ], [ 96.1135125670001, 21.981672079000134 ], [ 96.113183818000152, 21.981594645000143 ], [ 96.109546559000023, 21.981781333000129 ], [ 96.106633266000131, 21.981929032000039 ], [ 96.101580060000174, 21.982185220000076 ], [ 96.100827954000124, 21.982225366000023 ], [ 96.095878036000045, 21.982489584 ], [ 96.093113264000067, 21.982637163000049 ], [ 96.09093142200004, 21.982770203000086 ], [ 96.084468243, 21.983164302000091 ], [ 96.084449747000065, 21.983165519000067 ], [ 96.08444379700012, 21.983165911000128 ], [ 96.081222542000148, 21.98337795599997 ], [ 96.081173857000124, 21.983381161000182 ], [ 96.077801527000133, 21.983603151000068 ], [ 96.076330024000185, 21.983700015000068 ], [ 96.076189481000199, 21.983704391000117 ], [ 96.073155023000083, 21.98379885300011 ], [ 96.073119356000063, 21.983799963000024 ], [ 96.071648878000076, 21.98384573900006 ], [ 96.071028086000069, 21.98386140700012 ], [ 96.068989635000094, 21.983912854000039 ], [ 96.068976068000097, 21.983913430000086 ], [ 96.065783577, 21.984048950000101 ], [ 96.06195751000007, 21.984162666000088 ], [ 96.061655193000036, 21.984283748000166 ], [ 96.060467377000123, 21.984360683000034 ], [ 96.060370355000089, 21.984366967000028 ], [ 96.060194039000066, 21.984378387000106 ], [ 96.059540490000131, 21.984412176000149 ] ] ] } },
{ "type": "Feature", "properties": { "adm3_pcode": "MMR010003", "adm3_name": "Mahaaungmyay", "adm3_name1": "မဟာအောင်မြေ", "adm2_pcode": "MMR010D001", "adm2_name": "Mandalay", "area_sqkm": 14.73302058, "center_lat": 21.95965016, "center_lon": 96.09136742 }, "geometry": { "type": "Polygon", "coordinates": [ [ [ 96.131599168000093, 21.966866077000077 ], [ 96.131341414000076, 21.966873430000078 ], [ 96.130006753000089, 21.966911505000098 ], [ 96.12880678800019, 21.966945738 ], [ 96.126670206000142, 21.967026280000084 ], [ 96.126598028000046, 21.967029001000071 ], [ 96.123702694000087, 21.967138147000014 ], [ 96.118685724000102, 21.967327149000027 ], [ 96.116555696000091, 21.967406617000051 ], [ 96.115690468000082, 21.967438897000022 ], [ 96.113812281000037, 21.967508968000061 ], [ 96.110753041000066, 21.967617519999976 ], [ 96.10879161400004, 21.967698336000126 ], [ 96.106612085000052, 21.967788139000163 ], [ 96.105678050000165, 21.967831469000032 ], [ 96.104357051000193, 21.967892752000012 ], [ 96.103787042000192, 21.967919194999979 ], [ 96.103777691000062, 21.96791962900005 ], [ 96.103386905000036, 21.96794792500009 ], [ 96.103046287000097, 21.967972589000169 ], [ 96.101444362000166, 21.968088582000064 ], [ 96.099968059000105, 21.968201309000051 ], [ 96.09722863900015, 21.96841048400006 ], [ 96.095030727000164, 21.968570209000063 ], [ 96.093423485000073, 21.96868701 ], [ 96.090771712000105, 21.968902706000108 ], [ 96.090055069000073, 21.968955705000155 ], [ 96.088115208000033, 21.969099169000117 ], [ 96.083583567000176, 21.969343460000175 ], [ 96.083575364000126, 21.969343951000099 ], [ 96.081343704000062, 21.96947749800006 ], [ 96.081322804000081, 21.969478747999972 ], [ 96.078694135000092, 21.969636053000102 ], [ 96.078661726000178, 21.969637992 ], [ 96.077008240000168, 21.969751577000068 ], [ 96.074410735000072, 21.969930011000088 ], [ 96.073780834000104, 21.969933105 ], [ 96.071785027000089, 21.969842417000166 ], [ 96.0717037940002, 21.969838726000091 ], [ 96.070125170000154, 21.970017691000066 ], [ 96.060675054000171, 21.971055052 ], [ 96.057111897000141, 21.971436678000146 ], [ 96.056589553000094, 21.971492623000074 ], [ 96.056586316000107, 21.971492607000073 ], [ 96.056190934000085, 21.97149064700011 ], [ 96.05617352400003, 21.971490560000177 ], [ 96.056161738000128, 21.97128233300009 ], [ 96.056116417000055, 21.970481669000094 ], [ 96.055964132000156, 21.969491813000104 ], [ 96.055868953000186, 21.968711350000092 ], [ 96.055640525000115, 21.967892815000141 ], [ 96.055374026000152, 21.96676971 ], [ 96.054917169000134, 21.965494319000072 ], [ 96.054555491000201, 21.964409284000112 ], [ 96.053755992000049, 21.963229072000161 ], [ 96.05324202800017, 21.96248668000004 ], [ 96.052975529000037, 21.961953681000068 ], [ 96.052836330000162, 21.961767884000039 ], [ 96.052634076000118, 21.961125429999981 ], [ 96.052265260000183, 21.960245029000077 ], [ 96.051836957000148, 21.959055299000056 ], [ 96.051384859000052, 21.958246282000175 ], [ 96.05109932400012, 21.957520546000183 ], [ 96.050659124000163, 21.956735324000022 ], [ 96.050254615000142, 21.955902513000126 ], [ 96.050004772000193, 21.955057804000148 ], [ 96.049766826000052, 21.954106020000097 ], [ 96.04959394600013, 21.953441651000105 ], [ 96.050755978000154, 21.953408950000153 ], [ 96.050971645000175, 21.95300413300015 ], [ 96.051021042000059, 21.952929331000178 ], [ 96.051388051000117, 21.95237357600007 ], [ 96.051709278000146, 21.951909581000166 ], [ 96.051923429000055, 21.951546712999971 ], [ 96.052161375000196, 21.951237383000148 ], [ 96.05256588400016, 21.950820977000149 ], [ 96.052988238000125, 21.950345085000038 ], [ 96.053404644000125, 21.949869193000097 ], [ 96.053512116000093, 21.949722856000164 ], [ 96.053826205000064, 21.949266 ], [ 96.054225954, 21.948699688000033 ], [ 96.054521008000108, 21.948299938 ], [ 96.054671627000062, 21.948045729000057 ], [ 96.054689091000057, 21.948054034000108 ], [ 96.05620986200006, 21.948777249000159 ], [ 96.056354143000192, 21.949263055000017 ], [ 96.056418766000093, 21.949692599000059 ], [ 96.056385368000178, 21.950243760000092 ], [ 96.056281124000066, 21.95288416700015 ], [ 96.056270422000068, 21.953155246000108 ], [ 96.057259101000056, 21.95352712000016 ], [ 96.057697064000195, 21.953567839000073 ], [ 96.05842952200004, 21.953306079000072 ], [ 96.059250696000106, 21.952779982000152 ], [ 96.059283193000056, 21.952737030000151 ], [ 96.059388981000097, 21.952597209000032 ], [ 96.059606572000064, 21.952451711000094 ], [ 96.059907592000116, 21.952298744000132 ], [ 96.060621511000136, 21.952159146000099 ], [ 96.061466947000099, 21.952009947000136 ], [ 96.061754181000197, 21.952059908000081 ], [ 96.061957802000109, 21.952126299000156 ], [ 96.062300166000171, 21.952610493000066 ], [ 96.062732242000038, 21.953093304000163 ], [ 96.063475744000129, 21.953548887000068 ], [ 96.063817185, 21.95375810500019 ], [ 96.064433174000101, 21.954020109000169 ], [ 96.065300562000118, 21.954205931000104 ], [ 96.065931889000183, 21.954263809999986 ], [ 96.066001689000132, 21.954270209000072 ], [ 96.067092629000115, 21.954285739000113 ], [ 96.068499296000084, 21.954193040000177 ], [ 96.069193042000109, 21.954069305000132 ], [ 96.072006547000115, 21.953917720000163 ], [ 96.072695762000194, 21.953890011000055 ], [ 96.0732665660002, 21.953831531000048 ], [ 96.07353514800019, 21.953842290000125 ], [ 96.074739960000045, 21.953920485000083 ], [ 96.074740035000161, 21.953930128000081 ], [ 96.074742941000011, 21.954306225000039 ], [ 96.076101875, 21.954328050000186 ], [ 96.078700104000177, 21.954338492000147 ], [ 96.079779058000099, 21.954340497000032 ], [ 96.081061018000128, 21.954342880000127 ], [ 96.081077960000073, 21.954140188000054 ], [ 96.082035771, 21.954091543000061 ], [ 96.082060781000109, 21.954277071000092 ], [ 96.082782302000055, 21.954203325000037 ], [ 96.082771091000097, 21.954125510000097 ], [ 96.083627512000191, 21.954027291000045 ], [ 96.083424245000174, 21.953325140000118 ], [ 96.083427559000086, 21.953324950000138 ], [ 96.086365328000056, 21.953156466000053 ], [ 96.08777631900017, 21.953035509000074 ], [ 96.087779019000038, 21.953035278000129 ], [ 96.087924186000066, 21.952978149000103 ], [ 96.090783614000031, 21.952733315000103 ], [ 96.092164027000138, 21.952645206 ], [ 96.092212809000102, 21.952642093 ], [ 96.092283221000059, 21.952637599000184 ], [ 96.093983337, 21.952529084000162 ], [ 96.094171432000053, 21.952532414000075 ], [ 96.096683766000069, 21.952297451000106 ], [ 96.100202849000198, 21.952030084000114 ], [ 96.100897936000081, 21.951986262000048 ], [ 96.101786650000065, 21.951930233000098 ], [ 96.105219262000048, 21.951713823000148 ], [ 96.108143878000078, 21.951522769000121 ], [ 96.111409951000041, 21.951309410000135 ], [ 96.115857335000157, 21.95102665600001 ], [ 96.115930530000071, 21.951022002000173 ], [ 96.116927535000059, 21.950958615000161 ], [ 96.121623134000174, 21.950646453000104 ], [ 96.123393922000105, 21.950528731000134 ], [ 96.125013047000039, 21.950436848999971 ], [ 96.129102953000086, 21.950204757000165 ], [ 96.129190533000042, 21.950197226000171 ], [ 96.129236991000141, 21.951233726000112 ], [ 96.129674138000155, 21.952411607000158 ], [ 96.129756760000078, 21.952929516999973 ], [ 96.129967697000041, 21.954251748000047 ], [ 96.130140256000175, 21.955333410000037 ], [ 96.131043612000155, 21.962508544000059 ], [ 96.131320734000155, 21.964709648999985 ], [ 96.131599168000093, 21.966866077000077 ] ] ] } },
{ "type": "Feature", "properties": { "adm3_pcode": "MMR010004", "adm3_name": "Chanmyathazi", "adm3_name1": "ချမ်းမြသာစည်", "adm2_pcode": "MMR010D001", "adm2_name": "Mandalay", "area_sqkm": 25.98928193, "center_lat": 21.9323078, "center_lon": 96.10938241 }, "geometry": { "type": "Polygon", "coordinates": [ [ [ 96.129190533000042, 21.950197226000171 ], [ 96.129102953000086, 21.950204757000165 ], [ 96.125013047000039, 21.950436848999971 ], [ 96.123393922000105, 21.950528731000134 ], [ 96.121623134000174, 21.950646453000104 ], [ 96.116927535000059, 21.950958615000161 ], [ 96.115930530000071, 21.951022002000173 ], [ 96.115857335000157, 21.95102665600001 ], [ 96.111409951000041, 21.951309410000135 ], [ 96.108143878000078, 21.951522769000121 ], [ 96.105219262000048, 21.951713823000148 ], [ 96.101786650000065, 21.951930233000098 ], [ 96.100897936000081, 21.951986262000048 ], [ 96.100202849000198, 21.952030084000114 ], [ 96.096683766000069, 21.952297451000106 ], [ 96.094171432000053, 21.952532414000075 ], [ 96.093983337, 21.952529084000162 ], [ 96.092283221000059, 21.952637599000184 ], [ 96.092212809000102, 21.952642093 ], [ 96.092164027000138, 21.952645206 ], [ 96.090783614000031, 21.952733315000103 ], [ 96.087924186000066, 21.952978149000103 ], [ 96.087779019000038, 21.953035278000129 ], [ 96.08777631900017, 21.953035509000074 ], [ 96.086365328000056, 21.953156466000053 ], [ 96.083427559000086, 21.953324950000138 ], [ 96.083424245000174, 21.953325140000118 ], [ 96.083627512000191, 21.954027291000045 ], [ 96.082771091000097, 21.954125510000097 ], [ 96.082782302000055, 21.954203325000037 ], [ 96.082060781000109, 21.954277071000092 ], [ 96.082035771, 21.954091543000061 ], [ 96.081077960000073, 21.954140188000054 ], [ 96.081061018000128, 21.954342880000127 ], [ 96.079779058000099, 21.954340497000032 ], [ 96.078700104000177, 21.954338492000147 ], [ 96.076101875, 21.954328050000186 ], [ 96.074742941000011, 21.954306225000039 ], [ 96.074740035000161, 21.953930128000081 ], [ 96.074739960000045, 21.953920485000083 ], [ 96.07353514800019, 21.953842290000125 ], [ 96.0732665660002, 21.953831531000048 ], [ 96.072695762000194, 21.953890011000055 ], [ 96.072006547000115, 21.953917720000163 ], [ 96.069193042000109, 21.954069305000132 ], [ 96.068499296000084, 21.954193040000177 ], [ 96.067092629000115, 21.954285739000113 ], [ 96.066001689000132, 21.954270209000072 ], [ 96.065931889000183, 21.954263809999986 ], [ 96.065300562000118, 21.954205931000104 ], [ 96.064433174000101, 21.954020109000169 ], [ 96.063817185, 21.95375810500019 ], [ 96.063475744000129, 21.953548887000068 ], [ 96.062732242000038, 21.953093304000163 ], [ 96.062300166000171, 21.952610493000066 ], [ 96.061957802000109, 21.952126299000156 ], [ 96.061754181000197, 21.952059908000081 ], [ 96.061466947000099, 21.952009947000136 ], [ 96.060621511000136, 21.952159146000099 ], [ 96.059907592000116, 21.952298744000132 ], [ 96.059606572000064, 21.952451711000094 ], [ 96.059388981000097, 21.952597209000032 ], [ 96.059283193000056, 21.952737030000151 ], [ 96.059250696000106, 21.952779982000152 ], [ 96.05842952200004, 21.953306079000072 ], [ 96.057697064000195, 21.953567839000073 ], [ 96.057259101000056, 21.95352712000016 ], [ 96.056270422000068, 21.953155246000108 ], [ 96.056281124000066, 21.95288416700015 ], [ 96.056385368000178, 21.950243760000092 ], [ 96.056418766000093, 21.949692599000059 ], [ 96.056354143000192, 21.949263055000017 ], [ 96.05620986200006, 21.948777249000159 ], [ 96.054689091000057, 21.948054034000108 ], [ 96.054671627000062, 21.948045729000057 ], [ 96.054656913000088, 21.948038731000167 ], [ 96.054721739000115, 21.947868298000174 ], [ 96.054790240000159, 21.947277271000019 ], [ 96.054697130000136, 21.945088078000026 ], [ 96.0545209510002, 21.941961248000098 ], [ 96.054430598000067, 21.940383464000149 ], [ 96.054437582000105, 21.939796110000032 ], [ 96.054498106000153, 21.939591817000064 ], [ 96.054783801999974, 21.939143197000078 ], [ 96.055559590000087, 21.938015582000162 ], [ 96.055713899000125, 21.937731773 ], [ 96.055897727000058, 21.937257443000192 ], [ 96.055921929000135, 21.936828013000024 ], [ 96.055819522000093, 21.933845792000113 ], [ 96.055663388000141, 21.931235155000024 ], [ 96.055447900000047, 21.928026421000084 ], [ 96.055348280000146, 21.926649072000089 ], [ 96.059272713000041, 21.926365917000169 ], [ 96.060162920000096, 21.926328114000171 ], [ 96.062405841000157, 21.926106441 ], [ 96.062447212000109, 21.925423812000133 ], [ 96.062475766000148, 21.924995509000098 ], [ 96.06261139500009, 21.924938402000123 ], [ 96.063427890000071, 21.924952207999979 ], [ 96.064136403000134, 21.924964188000104 ], [ 96.065566686000068, 21.92498837100004 ], [ 96.065588101000174, 21.92508117 ], [ 96.065603884000154, 21.925219273000152 ], [ 96.065616655000042, 21.925331013000175 ], [ 96.065645208000035, 21.925587995000114 ], [ 96.0656978250002, 21.925749830000086 ], [ 96.067284424000093, 21.925721029000101 ], [ 96.069408533000114, 21.925735047000046 ], [ 96.07109842, 21.925705475000086 ], [ 96.072596902000043, 21.925648595000155 ], [ 96.074743428000147, 21.925637288000189 ], [ 96.075135829000033, 21.925635221000107 ], [ 96.076673672000197, 21.925627121000161 ], [ 96.076737376000096, 21.925626785000134 ], [ 96.077436097000088, 21.925756873000068 ], [ 96.077700487000129, 21.925749165000127 ], [ 96.0777088600002, 21.925807656000075 ], [ 96.077709847000051, 21.925816410000095 ], [ 96.078016249000143, 21.928534740000146 ], [ 96.078180945000099, 21.929514257999983 ], [ 96.078713092000157, 21.933469075000119 ], [ 96.078764439000054, 21.933850675000031 ], [ 96.078934758000059, 21.933847420000063 ], [ 96.079045411000038, 21.933845304000045 ], [ 96.079169559000036, 21.933518700000036 ], [ 96.079215025000053, 21.933399088000101 ], [ 96.079731652000078, 21.932667941000091 ], [ 96.079842530000178, 21.932576541000174 ], [ 96.079919904000178, 21.932468218000167 ], [ 96.079995035000081, 21.932450826000149 ], [ 96.080049277000171, 21.93240611300007 ], [ 96.080273422000118, 21.932209491000151 ], [ 96.080889024999976, 21.93189564000005 ], [ 96.086995010000123, 21.930704862000084 ], [ 96.087932711000121, 21.930562751000139 ], [ 96.088566391000199, 21.930466716000126 ], [ 96.088695942000129, 21.930447082000057 ], [ 96.089126668000063, 21.930378450000092 ], [ 96.092066009000177, 21.92991009300016 ], [ 96.093113618000075, 21.929680385000154 ], [ 96.096005119000154, 21.929046368000172 ], [ 96.097795751000149, 21.928653738000037 ], [ 96.100974711000106, 21.927892310000061 ], [ 96.102008562000094, 21.927436047000072 ], [ 96.102394307000168, 21.927265808000129 ], [ 96.103625039000178, 21.926722657000028 ], [ 96.105628776000174, 21.925838360000114 ], [ 96.110313800000199, 21.923782489000132 ], [ 96.110694999000032, 21.923615974000086 ], [ 96.118841746000044, 21.920057333000102 ], [ 96.119006359000082, 21.919984103000104 ], [ 96.12040584000016, 21.919361523000077 ], [ 96.125543537000055, 21.917075944999965 ], [ 96.127523930000052, 21.916199278000022 ], [ 96.128267022999978, 21.915860905000159 ], [ 96.130636911000181, 21.91451995500006 ], [ 96.130737356000054, 21.914462569000079 ], [ 96.132706926000083, 21.913337323000064 ], [ 96.133864634000133, 21.91267590700005 ], [ 96.134054436000042, 21.912567471000159 ], [ 96.134983874, 21.912027443000056 ], [ 96.136359078000112, 21.911228414000107 ], [ 96.13803142800009, 21.91025946600007 ], [ 96.138032839000118, 21.910296823000067 ], [ 96.138035210000055, 21.910359578000168 ], [ 96.138149164000083, 21.915093383000055 ], [ 96.138451655000154, 21.927659278000192 ], [ 96.138453095000102, 21.927719100000161 ], [ 96.138517516000036, 21.930395212000064 ], [ 96.139027179000152, 21.941735966000124 ], [ 96.139047823000112, 21.942195329000015 ], [ 96.138216583000087, 21.94237151800013 ], [ 96.137255325000126, 21.942575266000119 ], [ 96.136591774000181, 21.942715911000107 ], [ 96.136092198000085, 21.94282180099998 ], [ 96.13451565600019, 21.943155963000095 ], [ 96.133538035000015, 21.943570966000095 ], [ 96.131707078000147, 21.944876410000063 ], [ 96.130575190000116, 21.9457880490001 ], [ 96.12996670300015, 21.946768534000114 ], [ 96.129413792000094, 21.948167930000125 ], [ 96.129166286000043, 21.949656252000125 ], [ 96.129190533000042, 21.950197226000171 ] ] ] } },
{ "type": "Feature", "properties": { "adm3_pcode": "MMR010005", "adm3_name": "Pyigyitagon", "adm3_name1": "ပြည်ကြီးတံခွန်", "adm2_pcode": "MMR010D001", "adm2_name": "Mandalay", "area_sqkm": 32.63120114, "center_lat": 21.90172285, "center_lon": 96.10658859 }, "geometry": { "type": "Polygon", "coordinates": [ [ [ 96.087932711000121, 21.930562751000139 ], [ 96.086995010000123, 21.930704862000084 ], [ 96.080889024999976, 21.93189564000005 ], [ 96.080273422000118, 21.932209491000151 ], [ 96.080049277000171, 21.93240611300007 ], [ 96.079995035000081, 21.932450826000149 ], [ 96.079919904000178, 21.932468218000167 ], [ 96.079842530000178, 21.932576541000174 ], [ 96.079731652000078, 21.932667941000091 ], [ 96.079215025000053, 21.933399088000101 ], [ 96.079169559000036, 21.933518700000036 ], [ 96.079045411000038, 21.933845304000045 ], [ 96.078934758000059, 21.933847420000063 ], [ 96.078764439000054, 21.933850675000031 ], [ 96.078713092000157, 21.933469075000119 ], [ 96.078180945000099, 21.929514257999983 ], [ 96.078016249000143, 21.928534740000146 ], [ 96.077709847000051, 21.925816410000095 ], [ 96.0777088600002, 21.925807656000075 ], [ 96.077700487000129, 21.925749165000127 ], [ 96.077516231000175, 21.924462081000058 ], [ 96.077487404000181, 21.922866273000182 ], [ 96.077477890000125, 21.922597330000031 ], [ 96.07738680600005, 21.920022566000171 ], [ 96.077282459000173, 21.916610408000111 ], [ 96.077171090000149, 21.913040506000129 ], [ 96.07711560100006, 21.910995247000074 ], [ 96.077211700000134, 21.910299611000084 ], [ 96.074240147000182, 21.910437807000164 ], [ 96.074129208000159, 21.910443114000145 ], [ 96.070683460000168, 21.910607956000092 ], [ 96.069511150000153, 21.910664038000164 ], [ 96.068062723000139, 21.910783890000118 ], [ 96.068044251000174, 21.910019070999965 ], [ 96.068029486000114, 21.909407720000104 ], [ 96.068690860000117, 21.909104277000154 ], [ 96.069122411000023, 21.909025997000072 ], [ 96.071498224000038, 21.907482595999966 ], [ 96.072315616000196, 21.907057731000066 ], [ 96.07358911100016, 21.906354401000158 ], [ 96.074088294000148, 21.905971626 ], [ 96.074343836000139, 21.905488987000126 ], [ 96.074484278000057, 21.905128485000148 ], [ 96.074365775999979, 21.904916218000096 ], [ 96.074569599000085, 21.902455257000156 ], [ 96.076243969000075, 21.901166766000188 ], [ 96.076380697, 21.900987696000129 ], [ 96.076291138000158, 21.900861919000079 ], [ 96.076078982000183, 21.90072441000018 ], [ 96.076063586000146, 21.900475766000056 ], [ 96.076183747000073, 21.900105348000125 ], [ 96.076602210000146, 21.899663812000028 ], [ 96.07739761300013, 21.898808654000106 ], [ 96.07792014600011, 21.898282988000176 ], [ 96.078184527000019, 21.897867367000117 ], [ 96.078634648000047, 21.897378622000133 ], [ 96.078847669000197, 21.896971640000174 ], [ 96.078940453000087, 21.896609702000092 ], [ 96.079061859000149, 21.896120278000069 ], [ 96.07912003000007, 21.895777414000122 ], [ 96.079187653000076, 21.895472929000107 ], [ 96.079495874000088, 21.894914792000179 ], [ 96.080058617000191, 21.893921749000185 ], [ 96.080535798000142, 21.893108685000016 ], [ 96.080782615000089, 21.89254945600004 ], [ 96.080904116000113, 21.89211218700018 ], [ 96.0809561330002, 21.891568605000145 ], [ 96.081175284000153, 21.891362334000064 ], [ 96.081417785000042, 21.891280236 ], [ 96.081676453000114, 21.891241795000099 ], [ 96.081729224000128, 21.89108110900014 ], [ 96.0818213350002, 21.890800632000094 ], [ 96.082000140000162, 21.890564985000083 ], [ 96.08203608600013, 21.8903077 ], [ 96.082000019000077, 21.890068242000098 ], [ 96.082025539000085, 21.889820324000027 ], [ 96.082121320000056, 21.88964052100016 ], [ 96.082147422000105, 21.889363955000192 ], [ 96.082152672000177, 21.889106124000079 ], [ 96.082168931000183, 21.888810278000108 ], [ 96.082269183000165, 21.888410842000098 ], [ 96.082483344000195, 21.887946556000031 ], [ 96.082680733000075, 21.887300471000174 ], [ 96.082770750000179, 21.886900852000053 ], [ 96.082786035000083, 21.886652752000089 ], [ 96.082821006000074, 21.886443212000188 ], [ 96.08277373500016, 21.886251320000099 ], [ 96.082624731000067, 21.886028965000094 ], [ 96.08262056500007, 21.885999538000078 ], [ 96.082579987000088, 21.88571293200016 ], [ 96.082564189000038, 21.885483385999976 ], [ 96.082447630000104, 21.885175632000085 ], [ 96.082442064000134, 21.884946268000135 ], [ 96.082580321000137, 21.884690796000143 ], [ 96.082791170000064, 21.884388846000036 ], [ 96.082876520000013, 21.88421841000013 ], [ 96.08288079600004, 21.884008326000185 ], [ 96.082826597000064, 21.883653914000149 ], [ 96.082804842000144, 21.883214103000057 ], [ 96.082808729000192, 21.883023117000107 ], [ 96.082977872000072, 21.882758639000031 ], [ 96.083321142000045, 21.882487694000133 ], [ 96.083590266000101, 21.882339620000096 ], [ 96.087262229000089, 21.881829099000072 ], [ 96.087667448000161, 21.881805340000142 ], [ 96.091317039000046, 21.881212061000156 ], [ 96.091323857000077, 21.881211875000133 ], [ 96.09184603, 21.881197664000126 ], [ 96.092147084000032, 21.881189471000084 ], [ 96.092235100000039, 21.880957738000177 ], [ 96.09234170700006, 21.880677059000107 ], [ 96.092546946000084, 21.880145729000049 ], [ 96.092791173000137, 21.879710614000032 ], [ 96.093184800000131, 21.879478747000121 ], [ 96.094000810000125, 21.879111045000059 ], [ 96.100384362, 21.875717737000116 ], [ 96.101780570000074, 21.87507136500011 ], [ 96.102214556000092, 21.874870452000096 ], [ 96.103266793000046, 21.874383321000039 ], [ 96.103947051000034, 21.874146916000086 ], [ 96.10464799600004, 21.874104135000039 ], [ 96.10479757000013, 21.874095006000061 ], [ 96.104845658000045, 21.874101361000157 ], [ 96.105231919000119, 21.874152406 ], [ 96.108643703000155, 21.875674614000047 ], [ 96.111163646000193, 21.876798916000155 ], [ 96.111997465000172, 21.877193013000181 ], [ 96.112469995000197, 21.877368441000101 ], [ 96.113051109000139, 21.877433400000086 ], [ 96.113527196000177, 21.877401853000038 ], [ 96.113926507000087, 21.877278450000063 ], [ 96.114412808000054, 21.877012206000018 ], [ 96.114686957000117, 21.876862113000129 ], [ 96.11525532800016, 21.876488558000062 ], [ 96.115465962000144, 21.876269018000187 ], [ 96.115488998000103, 21.876214700000105 ], [ 96.120135152000159, 21.873025962000099 ], [ 96.120975042000168, 21.872449529999983 ], [ 96.122408763000067, 21.871465542000124 ], [ 96.124607129000026, 21.86995676500004 ], [ 96.124859338000022, 21.869918497000072 ], [ 96.125174389000108, 21.870029080999984 ], [ 96.126119354000195, 21.870370380000111 ], [ 96.127045200000055, 21.870644470000059 ], [ 96.128211717000056, 21.870655268000064 ], [ 96.129858840000168, 21.870236941000144 ], [ 96.131133154999986, 21.869913298000085 ], [ 96.132720549000055, 21.869348661 ], [ 96.13582686500007, 21.868571610000117 ], [ 96.136179860000198, 21.868504450000046 ], [ 96.136339799000041, 21.872088308000116 ], [ 96.137098170000172, 21.889081637000061 ], [ 96.137212477000105, 21.892468725000015 ], [ 96.137204925000049, 21.892469348000191 ], [ 96.137486961000093, 21.896793402000185 ], [ 96.137508266000168, 21.897598894000055 ], [ 96.137551906000056, 21.899248821000015 ], [ 96.137557450000145, 21.899458428000059 ], [ 96.137562107000122, 21.899481428 ], [ 96.137611144000175, 21.900654051000117 ], [ 96.137679094000077, 21.902278939000098 ], [ 96.13772061200018, 21.903271778000089 ], [ 96.137731363000057, 21.903305594000074 ], [ 96.137724475000198, 21.903364158000102 ], [ 96.137742265000099, 21.903789576000122 ], [ 96.13777017200016, 21.904456898000092 ], [ 96.137847250000164, 21.906300089000126 ], [ 96.137874241000191, 21.906945529000041 ], [ 96.137896713000089, 21.907482888000175 ], [ 96.137870793000047, 21.907597340000052 ], [ 96.137897792000047, 21.908295182000074 ], [ 96.137957339000138, 21.908298443999968 ], [ 96.138027995000073, 21.910168597000109 ], [ 96.13803142800009, 21.91025946600007 ], [ 96.136359078000112, 21.911228414000107 ], [ 96.134983874, 21.912027443000056 ], [ 96.134054436000042, 21.912567471000159 ], [ 96.133864634000133, 21.91267590700005 ], [ 96.132706926000083, 21.913337323000064 ], [ 96.130737356000054, 21.914462569000079 ], [ 96.130636911000181, 21.91451995500006 ], [ 96.128267022999978, 21.915860905000159 ], [ 96.127523930000052, 21.916199278000022 ], [ 96.125543537000055, 21.917075944999965 ], [ 96.12040584000016, 21.919361523000077 ], [ 96.119006359000082, 21.919984103000104 ], [ 96.118841746000044, 21.920057333000102 ], [ 96.110694999000032, 21.923615974000086 ], [ 96.110313800000199, 21.923782489000132 ], [ 96.105628776000174, 21.925838360000114 ], [ 96.103625039000178, 21.926722657000028 ], [ 96.102394307000168, 21.927265808000129 ], [ 96.102008562000094, 21.927436047000072 ], [ 96.100974711000106, 21.927892310000061 ], [ 96.097795751000149, 21.928653738000037 ], [ 96.096005119000154, 21.929046368000172 ], [ 96.093113618000075, 21.929680385000154 ], [ 96.092066009000177, 21.92991009300016 ], [ 96.089126668000063, 21.930378450000092 ], [ 96.088695942000129, 21.930447082000057 ], [ 96.088566391000199, 21.930466716000126 ], [ 96.087932711000121, 21.930562751000139 ] ] ] } },
{ "type": "Feature", "properties": { "adm3_pcode": "MMR010006", "adm3_name": "Amarapura", "adm3_name1": "အမရပူရ", "adm2_pcode": "MMR010D001", "adm2_name": "Mandalay", "area_sqkm": 208.7247097, "center_lat": 21.86322294, "center_lon": 96.10315999 }, "geometry": { "type": "Polygon", "coordinates": [ [ [ 96.062475766000148, 21.924995509000098 ], [ 96.062447212000109, 21.925423812000133 ], [ 96.062405841000157, 21.926106441 ], [ 96.060162920000096, 21.926328114000171 ], [ 96.059272713000041, 21.926365917000169 ], [ 96.055348280000146, 21.926649072000089 ], [ 96.055447900000047, 21.928026421000084 ], [ 96.055663388000141, 21.931235155000024 ], [ 96.055819522000093, 21.933845792000113 ], [ 96.055921929000135, 21.936828013000024 ], [ 96.055897727000058, 21.937257443000192 ], [ 96.055713899000125, 21.937731773 ], [ 96.055559590000087, 21.938015582000162 ], [ 96.054783801999974, 21.939143197000078 ], [ 96.054498106000153, 21.939591817000064 ], [ 96.054437582000105, 21.939796110000032 ], [ 96.054430598000067, 21.940383464000149 ], [ 96.0545209510002, 21.941961248000098 ], [ 96.054697130000136, 21.945088078000026 ], [ 96.054790240000159, 21.947277271000019 ], [ 96.054721739000115, 21.947868298000174 ], [ 96.054656913000088, 21.948038731000167 ], [ 96.054671627000062, 21.948045729000057 ], [ 96.054521008000108, 21.948299938 ], [ 96.054225954, 21.948699688000033 ], [ 96.053826205000064, 21.949266 ], [ 96.053512116000093, 21.949722856000164 ], [ 96.053404644000125, 21.949869193000097 ], [ 96.052988238000125, 21.950345085000038 ], [ 96.05256588400016, 21.950820977000149 ], [ 96.052161375000196, 21.951237383000148 ], [ 96.051923429000055, 21.951546712999971 ], [ 96.051709278000146, 21.951909581000166 ], [ 96.051388051000117, 21.95237357600007 ], [ 96.051021042000059, 21.952929331000178 ], [ 96.050971645000175, 21.95300413300015 ], [ 96.050755978000154, 21.953408950000153 ], [ 96.04959394600013, 21.953441651000105 ], [ 96.049211677000187, 21.953373153000086 ], [ 96.044161898000084, 21.951895169000011 ], [ 96.043784558000141, 21.949128004000158 ], [ 96.043542425000055, 21.947352360000139 ], [ 96.042332127000122, 21.940998294 ], [ 96.040712940000162, 21.939379107000093 ], [ 96.036280637000175, 21.934946804000049 ], [ 96.023297129000071, 21.928764182000123 ], [ 96.022390406000113, 21.928332409000177 ], [ 96.020456202000105, 21.927038283000059 ], [ 96.012745830000028, 21.921055006000131 ], [ 96.012743077000096, 21.921052994000149 ], [ 96.012742996000156, 21.921052933000055 ], [ 96.012742827000068, 21.921052739000061 ], [ 96.012742814000148, 21.921052665000047 ], [ 96.012681916000076, 21.920919866000133 ], [ 96.009956656000043, 21.914976888000126 ], [ 96.008443783000189, 21.910438272000135 ], [ 96.008024602000035, 21.90898511100005 ], [ 96.005847207999977, 21.901436812000156 ], [ 96.004237655000111, 21.895857025000055 ], [ 96.003905166000095, 21.894704397000112 ], [ 96.002502939000124, 21.890066263 ], [ 95.999971697000149, 21.881693692000113 ], [ 95.996934033000173, 21.877354172000082 ], [ 95.995437721000144, 21.875216583000054 ], [ 95.995442026000092, 21.87530267600016 ], [ 95.991833401000179, 21.870074322000107 ], [ 95.991499611000108, 21.869590711000171 ], [ 95.987394360000167, 21.868004126000073 ], [ 95.991710081000122, 21.862419077000084 ], [ 95.991920019000077, 21.862147392000054 ], [ 95.992191247000108, 21.858892649000154 ], [ 95.990106894000064, 21.856602487000032 ], [ 95.990106297000125, 21.856601831000148 ], [ 95.989945830000067, 21.856111055000042 ], [ 95.988500385000123, 21.854837354000097 ], [ 95.988261617000035, 21.854685206999989 ], [ 95.987260818000095, 21.854047775000026 ], [ 95.986524335000183, 21.853491803000054 ], [ 95.986523546000058, 21.853491207000161 ], [ 95.985704281000039, 21.85287302800009 ], [ 95.984403633000056, 21.85135464800004 ], [ 95.984403617000055, 21.851354598000057 ], [ 95.984395622000193, 21.851324485000134 ], [ 95.984395463999988, 21.851323889000071 ], [ 95.984210939000093, 21.850629099000116 ], [ 95.984211168000058, 21.850629093000123 ], [ 95.984022141000139, 21.849916458000052 ], [ 95.984294884, 21.847912703000077 ], [ 95.984308314000089, 21.847814244 ], [ 95.98468971300008, 21.846235275000026 ], [ 95.98495662900018, 21.844988777000083 ], [ 95.985071182000127, 21.844453812000154 ], [ 95.985071181000023, 21.844453578000127 ], [ 95.985070271000154, 21.844210938000117 ], [ 95.985063396000044, 21.842420526000126 ], [ 95.98536835900012, 21.83998638300011 ], [ 95.985688916000072, 21.838144274000172 ], [ 95.985974886000122, 21.836274997000146 ], [ 95.986990211000034, 21.833257282000147 ], [ 95.988693243000057, 21.832344943000066 ], [ 95.992724754000108, 21.830185204000145 ], [ 95.994885667000119, 21.828312968000148 ], [ 95.994886566000105, 21.828312364000055 ], [ 96.002986539000176, 21.822873830000049 ], [ 96.004603449, 21.821788194000078 ], [ 96.012181240000075, 21.813595990000124 ], [ 96.020168639000019, 21.810933523000188 ], [ 96.027880042000106, 21.81308100200016 ], [ 96.032947050000132, 21.81449206800005 ], [ 96.03634824400018, 21.815439236000032 ], [ 96.044335643000181, 21.820354559000066 ], [ 96.047612526000137, 21.825065077999966 ], [ 96.044052828000133, 21.827787198000124 ], [ 96.044052744000112, 21.827787253000054 ], [ 96.038398658000176, 21.831466325000179 ], [ 96.037317066000014, 21.835630398000035 ], [ 96.03731717200003, 21.835630654000056 ], [ 96.039718886000173, 21.841409946 ], [ 96.043514736000191, 21.845006014000035 ], [ 96.046005562000062, 21.847365745000161 ], [ 96.046493821000183, 21.84782830600011 ], [ 96.048131638000086, 21.849379922000082 ], [ 96.05098912200009, 21.85012075100019 ], [ 96.054109119000032, 21.850929639000128 ], [ 96.054564330000119, 21.850667017999967 ], [ 96.059865215000059, 21.847608818000083 ], [ 96.066049182000029, 21.842257735000089 ], [ 96.066235795000125, 21.842096256000161 ], [ 96.066729241000075, 21.841669373000059 ], [ 96.066735830000198, 21.841663673000141 ], [ 96.068136215000152, 21.840452194000022 ], [ 96.068136025000115, 21.840451218000112 ], [ 96.069163520000131, 21.833661357000096 ], [ 96.067243740000094, 21.826364519000094 ], [ 96.067243593, 21.826363960000151 ], [ 96.067378674000111, 21.823141163000059 ], [ 96.067392415000086, 21.822813333000113 ], [ 96.069606296000188, 21.82148500500017 ], [ 96.069647844000087, 21.821495392000031 ], [ 96.073148508000031, 21.822370557000056 ], [ 96.076247944000102, 21.827462486000115 ], [ 96.076165935000176, 21.831162986000038 ], [ 96.076166153000031, 21.831163406000087 ], [ 96.076166153000031, 21.831163447000165 ], [ 96.078461827000069, 21.835653850000028 ], [ 96.082446816000186, 21.834989686000142 ], [ 96.085103473000174, 21.832554417000154 ], [ 96.094623168000112, 21.826355545000069 ], [ 96.101346498000055, 21.822400745000095 ], [ 96.101346615000125, 21.822400676000143 ], [ 96.101347322000095, 21.822399275000123 ], [ 96.102814533000128, 21.819492509000156 ], [ 96.102129053000056, 21.818464290000065 ], [ 96.101043426000047, 21.816835852000168 ], [ 96.094180392000055, 21.812186700000041 ], [ 96.087760132000142, 21.80953003999997 ], [ 96.082668204000015, 21.805987828000184 ], [ 96.078538885000057, 21.797895437000022 ], [ 96.078538633000051, 21.797894945000166 ], [ 96.078600436999977, 21.797242730000107 ], [ 96.078904604, 21.794032862999984 ], [ 96.082889592000072, 21.789605099000084 ], [ 96.089974013000131, 21.788498159000028 ], [ 96.094038441000123, 21.791256163000128 ], [ 96.096172885000158, 21.792704535000041 ], [ 96.096468124000182, 21.799710744000038 ], [ 96.096468035999976, 21.799711241000182 ], [ 96.096467972000141, 21.799711227000159 ], [ 96.096213436000085, 21.80114666999998 ], [ 96.095907211000053, 21.802873611000166 ], [ 96.096062458000176, 21.80622958500004 ], [ 96.097501213000101, 21.807537545000059 ], [ 96.10138159000013, 21.809477734000097 ], [ 96.101928978000103, 21.809751428000027 ], [ 96.104159386000106, 21.809423427000127 ], [ 96.10945617800013, 21.808644488000084 ], [ 96.119418650000171, 21.808865876000084 ], [ 96.133996928000101, 21.816682933000038 ], [ 96.133996929000148, 21.816682724000088 ], [ 96.134030274000168, 21.811743921000129 ], [ 96.132737006000127, 21.805831848000082 ], [ 96.132483674000127, 21.80467376100006 ], [ 96.133366107000199, 21.802224228000171 ], [ 96.141435635000164, 21.798204506000104 ], [ 96.14143576400005, 21.798204442000099 ], [ 96.14017558200004, 21.790450295000028 ], [ 96.139786367000113, 21.788055382000039 ], [ 96.138211959000046, 21.780722838000145 ], [ 96.13821173600013, 21.780721798000059 ], [ 96.140450532000102, 21.774772086000041 ], [ 96.144214132000059, 21.772336818000156 ], [ 96.145153773000118, 21.772395545000109 ], [ 96.151298556000029, 21.772779593999985 ], [ 96.161703801000101, 21.77565763900003 ], [ 96.167681285000128, 21.77565763900003 ], [ 96.168630677000181, 21.783143544999973 ], [ 96.16865025300018, 21.78490620499997 ], [ 96.168653469999981, 21.785195899000144 ], [ 96.167994881000141, 21.788164684000037 ], [ 96.167936325000085, 21.788431168000045 ], [ 96.167621091000115, 21.790222270000129 ], [ 96.167516708000107, 21.790815353000085 ], [ 96.167239700000096, 21.791868846999989 ], [ 96.166780229000153, 21.793615145999979 ], [ 96.166230692000113, 21.796350043000075 ], [ 96.166231184000139, 21.796350334000181 ], [ 96.171666273000142, 21.7995675680001 ], [ 96.180079026000158, 21.7995675680001 ], [ 96.184480458000166, 21.796102470000108 ], [ 96.184659765000163, 21.793275861000097 ], [ 96.18467089000012, 21.792678945999967 ], [ 96.184728178000057, 21.789605099000084 ], [ 96.190041498000028, 21.785398723000071 ], [ 96.19358370700013, 21.789162323000085 ], [ 96.193834492000178, 21.791168599000173 ], [ 96.194912038000155, 21.7997889560001 ], [ 96.201110907000157, 21.803552556000113 ], [ 96.203324791000171, 21.812186700000041 ], [ 96.203244950000055, 21.82321201700006 ], [ 96.203245163000133, 21.823213577 ], [ 96.202669179999987, 21.826394808000032 ], [ 96.202669144000197, 21.826395035000132 ], [ 96.201416311000173, 21.82977802500011 ], [ 96.201416251000182, 21.829777928 ], [ 96.201269192000154, 21.830175015000123 ], [ 96.201269168000181, 21.830175352000026 ], [ 96.201269150000144, 21.83017540000003 ], [ 96.201259752000112, 21.830306137000093 ], [ 96.201055377000159, 21.833144822000065 ], [ 96.199115091000181, 21.837027919000093 ], [ 96.199072022999985, 21.837114064000048 ], [ 96.196469333000152, 21.838926069000138 ], [ 96.19408961400012, 21.840058908000174 ], [ 96.192391629000099, 21.841984983000089 ], [ 96.190805150000187, 21.84447620800006 ], [ 96.192932955000117, 21.849654704000102 ], [ 96.194147046000126, 21.852609471000051 ], [ 96.201178329000186, 21.856516088000092 ], [ 96.214566079000178, 21.860895500000026 ], [ 96.21546073900015, 21.864026805000037 ], [ 96.21250634200004, 21.870188996000024 ], [ 96.212491520000015, 21.870233460000122 ], [ 96.209771738000086, 21.878392555000119 ], [ 96.209058335000122, 21.881123180000031 ], [ 96.193277176000095, 21.879592172000173 ], [ 96.180906145000108, 21.878391996000175 ], [ 96.177764275000015, 21.878391935000082 ], [ 96.170445939000047, 21.879367714000068 ], [ 96.169022346000133, 21.879557526000156 ], [ 96.160075758000119, 21.880004855000095 ], [ 96.159510663000162, 21.879915629000038 ], [ 96.151576497000065, 21.878662866000184 ], [ 96.147103202000039, 21.87754454200001 ], [ 96.142973802000142, 21.875266076000173 ], [ 96.138557073000186, 21.873150409000175 ], [ 96.136339799000041, 21.872088308000116 ], [ 96.136179860000198, 21.868504450000046 ], [ 96.13582686500007, 21.868571610000117 ], [ 96.132720549000055, 21.869348661 ], [ 96.131133154999986, 21.869913298000085 ], [ 96.129858840000168, 21.870236941000144 ], [ 96.128211717000056, 21.870655268000064 ], [ 96.127045200000055, 21.870644470000059 ], [ 96.126119354000195, 21.870370380000111 ], [ 96.125174389000108, 21.870029080999984 ], [ 96.124859338000022, 21.869918497000072 ], [ 96.124607129000026, 21.86995676500004 ], [ 96.122408763000067, 21.871465542000124 ], [ 96.120975042000168, 21.872449529999983 ], [ 96.120135152000159, 21.873025962000099 ], [ 96.115488998000103, 21.876214700000105 ], [ 96.115465962000144, 21.876269018000187 ], [ 96.11525532800016, 21.876488558000062 ], [ 96.114686957000117, 21.876862113000129 ], [ 96.114412808000054, 21.877012206000018 ], [ 96.113926507000087, 21.877278450000063 ], [ 96.113527196000177, 21.877401853000038 ], [ 96.113051109000139, 21.877433400000086 ], [ 96.112469995000197, 21.877368441000101 ], [ 96.111997465000172, 21.877193013000181 ], [ 96.111163646000193, 21.876798916000155 ], [ 96.108643703000155, 21.875674614000047 ], [ 96.105231919000119, 21.874152406 ], [ 96.104845658000045, 21.874101361000157 ], [ 96.10479757000013, 21.874095006000061 ], [ 96.10464799600004, 21.874104135000039 ], [ 96.103947051000034, 21.874146916000086 ], [ 96.103266793000046, 21.874383321000039 ], [ 96.102214556000092, 21.874870452000096 ], [ 96.101780570000074, 21.87507136500011 ], [ 96.100384362, 21.875717737000116 ], [ 96.094000810000125, 21.879111045000059 ], [ 96.093184800000131, 21.879478747000121 ], [ 96.092791173000137, 21.879710614000032 ], [ 96.092546946000084, 21.880145729000049 ], [ 96.09234170700006, 21.880677059000107 ], [ 96.092235100000039, 21.880957738000177 ], [ 96.092147084000032, 21.881189471000084 ], [ 96.09184603, 21.881197664000126 ], [ 96.091323857000077, 21.881211875000133 ], [ 96.091317039000046, 21.881212061000156 ], [ 96.087667448000161, 21.881805340000142 ], [ 96.087262229000089, 21.881829099000072 ], [ 96.083590266000101, 21.882339620000096 ], [ 96.083321142000045, 21.882487694000133 ], [ 96.082977872000072, 21.882758639000031 ], [ 96.082808729000192, 21.883023117000107 ], [ 96.082804842000144, 21.883214103000057 ], [ 96.082826597000064, 21.883653914000149 ], [ 96.08288079600004, 21.884008326000185 ], [ 96.082876520000013, 21.88421841000013 ], [ 96.082791170000064, 21.884388846000036 ], [ 96.082580321000137, 21.884690796000143 ], [ 96.082442064000134, 21.884946268000135 ], [ 96.082447630000104, 21.885175632000085 ], [ 96.082564189000038, 21.885483385999976 ], [ 96.082579987000088, 21.88571293200016 ], [ 96.08262056500007, 21.885999538000078 ], [ 96.082624731000067, 21.886028965000094 ], [ 96.08277373500016, 21.886251320000099 ], [ 96.082821006000074, 21.886443212000188 ], [ 96.082786035000083, 21.886652752000089 ], [ 96.082770750000179, 21.886900852000053 ], [ 96.082680733000075, 21.887300471000174 ], [ 96.082483344000195, 21.887946556000031 ], [ 96.082269183000165, 21.888410842000098 ], [ 96.082168931000183, 21.888810278000108 ], [ 96.082152672000177, 21.889106124000079 ], [ 96.082147422000105, 21.889363955000192 ], [ 96.082121320000056, 21.88964052100016 ], [ 96.082025539000085, 21.889820324000027 ], [ 96.082000019000077, 21.890068242000098 ], [ 96.08203608600013, 21.8903077 ], [ 96.082000140000162, 21.890564985000083 ], [ 96.0818213350002, 21.890800632000094 ], [ 96.081729224000128, 21.89108110900014 ], [ 96.081676453000114, 21.891241795000099 ], [ 96.081417785000042, 21.891280236 ], [ 96.081175284000153, 21.891362334000064 ], [ 96.0809561330002, 21.891568605000145 ], [ 96.080904116000113, 21.89211218700018 ], [ 96.080782615000089, 21.89254945600004 ], [ 96.080535798000142, 21.893108685000016 ], [ 96.080058617000191, 21.893921749000185 ], [ 96.079495874000088, 21.894914792000179 ], [ 96.079187653000076, 21.895472929000107 ], [ 96.07912003000007, 21.895777414000122 ], [ 96.079061859000149, 21.896120278000069 ], [ 96.078940453000087, 21.896609702000092 ], [ 96.078847669000197, 21.896971640000174 ], [ 96.078634648000047, 21.897378622000133 ], [ 96.078184527000019, 21.897867367000117 ], [ 96.07792014600011, 21.898282988000176 ], [ 96.07739761300013, 21.898808654000106 ], [ 96.076602210000146, 21.899663812000028 ], [ 96.076183747000073, 21.900105348000125 ], [ 96.076063586000146, 21.900475766000056 ], [ 96.076078982000183, 21.90072441000018 ], [ 96.076291138000158, 21.900861919000079 ], [ 96.076380697, 21.900987696000129 ], [ 96.076243969000075, 21.901166766000188 ], [ 96.074569599000085, 21.902455257000156 ], [ 96.074365775999979, 21.904916218000096 ], [ 96.074484278000057, 21.905128485000148 ], [ 96.074343836000139, 21.905488987000126 ], [ 96.074088294000148, 21.905971626 ], [ 96.07358911100016, 21.906354401000158 ], [ 96.072315616000196, 21.907057731000066 ], [ 96.071498224000038, 21.907482595999966 ], [ 96.069122411000023, 21.909025997000072 ], [ 96.068690860000117, 21.909104277000154 ], [ 96.068029486000114, 21.909407720000104 ], [ 96.068044251000174, 21.910019070999965 ], [ 96.068062723000139, 21.910783890000118 ], [ 96.069511150000153, 21.910664038000164 ], [ 96.070683460000168, 21.910607956000092 ], [ 96.074129208000159, 21.910443114000145 ], [ 96.074240147000182, 21.910437807000164 ], [ 96.077211700000134, 21.910299611000084 ], [ 96.07711560100006, 21.910995247000074 ], [ 96.077171090000149, 21.913040506000129 ], [ 96.077282459000173, 21.916610408000111 ], [ 96.07738680600005, 21.920022566000171 ], [ 96.077477890000125, 21.922597330000031 ], [ 96.077487404000181, 21.922866273000182 ], [ 96.077516231000175, 21.924462081000058 ], [ 96.077700487000129, 21.925749165000127 ], [ 96.077436097000088, 21.925756873000068 ], [ 96.076737376000096, 21.925626785000134 ], [ 96.076673672000197, 21.925627121000161 ], [ 96.075135829000033, 21.925635221000107 ], [ 96.074743428000147, 21.925637288000189 ], [ 96.072596902000043, 21.925648595000155 ], [ 96.07109842, 21.925705475000086 ], [ 96.069408533000114, 21.925735047000046 ], [ 96.067284424000093, 21.925721029000101 ], [ 96.0656978250002, 21.925749830000086 ], [ 96.065645208000035, 21.925587995000114 ], [ 96.065616655000042, 21.925331013000175 ], [ 96.065603884000154, 21.925219273000152 ], [ 96.065588101000174, 21.92508117 ], [ 96.065566686000068, 21.92498837100004 ], [ 96.064136403000134, 21.924964188000104 ], [ 96.063427890000071, 21.924952207999979 ], [ 96.06261139500009, 21.924938402000123 ], [ 96.062475766000148, 21.924995509000098 ] ] ] } },
{ "type": "Feature", "properties": { "adm3_pcode": "MMR010007", "adm3_name": "Patheingyi", "adm3_name1": "ပုသိမ်ကြီး", "adm2_pcode": "MMR010D001", "adm2_name": "Mandalay", "area_sqkm": 591.84753381999997, "center_lat": 21.98899566, "center_lon": 96.21376915 }, "geometry": { "type": "Polygon", "coordinates": [ [ [ 96.222667714000181, 22.157149808000099 ], [ 96.213229432000162, 22.158474480000109 ], [ 96.209918826000148, 22.15893912700011 ], [ 96.197447853000085, 22.165709082999967 ], [ 96.194262291000143, 22.167438388000164 ], [ 96.18204844100012, 22.167438388000164 ], [ 96.178158429000121, 22.167438388000164 ], [ 96.176145448000113, 22.155136827000092 ], [ 96.173461472000099, 22.152005520999978 ], [ 96.166304198000148, 22.149768872000095 ], [ 96.15180550000008, 22.141453441000181 ], [ 96.151094996000097, 22.141045946000133 ], [ 96.145056049, 22.138809300000162 ], [ 96.1457270410001, 22.133441345 ], [ 96.14780220900002, 22.132442191000109 ], [ 96.151765991000104, 22.130533704000015 ], [ 96.164828880000073, 22.12844337000007 ], [ 96.163371707000067, 22.123277026000039 ], [ 96.161696519000031, 22.118809862999967 ], [ 96.160687728000141, 22.11611975500017 ], [ 96.158227417000035, 22.112317454000049 ], [ 96.15218846700003, 22.111870124000177 ], [ 96.151517475000162, 22.109186148000163 ], [ 96.150175486000194, 22.10404185800013 ], [ 96.149055681, 22.101503634000039 ], [ 96.146820515000172, 22.096437257 ], [ 96.1451008680001, 22.09048464000017 ], [ 96.138801682000064, 22.090942762000054 ], [ 96.1345189540001, 22.092858622000108 ], [ 96.134020809, 22.085798163000106 ], [ 96.133382524000069, 22.076751412000192 ], [ 96.133272052000166, 22.075185640000143 ], [ 96.131577283000183, 22.073872775000154 ], [ 96.126467023000089, 22.07586010000017 ], [ 96.126136345000077, 22.064451682000026 ], [ 96.124846336000019, 22.064617068000189 ], [ 96.114755230000185, 22.065910799000051 ], [ 96.114691270000037, 22.065647857000101 ], [ 96.112981311, 22.058618023000065 ], [ 96.106279840000013, 22.054478879000044 ], [ 96.10193006500009, 22.055997848000061 ], [ 96.101906412000176, 22.055990681000083 ], [ 96.090314573000057, 22.059997737000174 ], [ 96.086642272000063, 22.061334317000103 ], [ 96.080977864000147, 22.055216758000086 ], [ 96.079210829000033, 22.053308361 ], [ 96.079012796000086, 22.053398376000075 ], [ 96.071134848000042, 22.058650341000089 ], [ 96.065170455999976, 22.055369924000161 ], [ 96.06514938100014, 22.055367395000019 ], [ 96.058954967000091, 22.054624064999985 ], [ 96.057714965000116, 22.054475265000121 ], [ 96.056297327000095, 22.05388865599997 ], [ 96.04906659400018, 22.050896629000135 ], [ 96.047873715000151, 22.047914431000152 ], [ 96.051452351000137, 22.044335796000041 ], [ 96.054229424000141, 22.04063303200013 ], [ 96.059558206000133, 22.033527992000018 ], [ 96.061328477000188, 22.024882737000155 ], [ 96.0599470800002, 22.024397330000056 ], [ 96.046875224000075, 22.019804032000138 ], [ 96.046526659000051, 22.019611806000057 ], [ 96.041742150000061, 22.016973237000116 ], [ 96.0389271250001, 22.01749602700005 ], [ 96.030875194000146, 22.012724513000137 ], [ 96.025485233000097, 22.007618232000141 ], [ 96.025001123000038, 22.007734505000087 ], [ 96.018758718000186, 22.019082841000056 ], [ 96.018758774000162, 22.019083023000064 ], [ 96.018900047000045, 22.020894102999989 ], [ 96.018758644000172, 22.019083020000153 ], [ 96.018758642000194, 22.019082979000075 ], [ 96.016267598000127, 22.01103760899997 ], [ 96.016218102000096, 22.010131617000184 ], [ 96.016218026000104, 22.010130223000033 ], [ 96.016217998000116, 22.010129710000115 ], [ 96.016202640000074, 22.009847670000056 ], [ 96.015894316000129, 22.009061785000142 ], [ 96.015179207000017, 22.007238744000176 ], [ 96.01367191200012, 22.00339617000003 ], [ 96.015234696999983, 21.991676755000185 ], [ 96.017969267000126, 21.985035791000143 ], [ 96.01915015000003, 21.983646515000089 ], [ 96.019518191000031, 21.983213526000043 ], [ 96.021152286000131, 21.981291061999968 ], [ 96.022748582000077, 21.97941306700011 ], [ 96.024610175000191, 21.977222957000095 ], [ 96.024442350000072, 21.973864812000159 ], [ 96.024219717000051, 21.969409988000166 ], [ 96.020704258000194, 21.959253070000159 ], [ 96.019878533, 21.958046134000142 ], [ 96.018819999000186, 21.956498907000082 ], [ 96.015626214000179, 21.951830656000141 ], [ 96.01562699700014, 21.951822807000099 ], [ 96.015700471000173, 21.951013985000145 ], [ 96.01640766800017, 21.943236410999987 ], [ 96.01650659600017, 21.943005583000115 ], [ 96.018751578000092, 21.93776738400004 ], [ 96.014387695000096, 21.930646721000187 ], [ 96.01365241600007, 21.926358078000135 ], [ 96.013132632000065, 21.923326351000014 ], [ 96.012742827000068, 21.921052739000061 ], [ 96.012742996000156, 21.921052933000055 ], [ 96.012743077000096, 21.921052994000149 ], [ 96.012745830000028, 21.921055006000131 ], [ 96.020456202000105, 21.927038283000059 ], [ 96.022390406000113, 21.928332409000177 ], [ 96.023297129000071, 21.928764182000123 ], [ 96.036280637000175, 21.934946804000049 ], [ 96.040712940000162, 21.939379107000093 ], [ 96.042332127000122, 21.940998294 ], [ 96.043542425000055, 21.947352360000139 ], [ 96.043784558000141, 21.949128004000158 ], [ 96.044161898000084, 21.951895169000011 ], [ 96.049211677000187, 21.953373153000086 ], [ 96.04959394600013, 21.953441651000105 ], [ 96.049766826000052, 21.954106020000097 ], [ 96.050004772000193, 21.955057804000148 ], [ 96.050254615000142, 21.955902513000126 ], [ 96.050659124000163, 21.956735324000022 ], [ 96.05109932400012, 21.957520546000183 ], [ 96.051384859000052, 21.958246282000175 ], [ 96.051836957000148, 21.959055299000056 ], [ 96.052265260000183, 21.960245029000077 ], [ 96.052634076000118, 21.961125429999981 ], [ 96.052836330000162, 21.961767884000039 ], [ 96.052975529000037, 21.961953681000068 ], [ 96.05324202800017, 21.96248668000004 ], [ 96.053755992000049, 21.963229072000161 ], [ 96.054555491000201, 21.964409284000112 ], [ 96.054917169000134, 21.965494319000072 ], [ 96.055374026000152, 21.96676971 ], [ 96.055640525000115, 21.967892815000141 ], [ 96.055868953000186, 21.968711350000092 ], [ 96.055964132000156, 21.969491813000104 ], [ 96.056116417000055, 21.970481669000094 ], [ 96.056161738000128, 21.97128233300009 ], [ 96.05617352400003, 21.971490560000177 ], [ 96.056190934000085, 21.97149064700011 ], [ 96.056397487000197, 21.972049067000114 ], [ 96.056725852999989, 21.973005611000019 ], [ 96.056854344000101, 21.97397643100004 ], [ 96.056997111000101, 21.974890144000085 ], [ 96.057182709000131, 21.97564681200015 ], [ 96.057368307000047, 21.976289267000141 ], [ 96.057525352000198, 21.97717442600009 ], [ 96.057682396000189, 21.977988202000063 ], [ 96.057925101000137, 21.979258834000063 ], [ 96.058067869000013, 21.979986949000022 ], [ 96.058196360000068, 21.980686511000158 ], [ 96.058444419000125, 21.981614501000024 ], [ 96.058672847000196, 21.982299785000066 ], [ 96.059015489000103, 21.982870856000147 ], [ 96.059258194, 21.983370542999978 ], [ 96.059386685000106, 21.983841676000168 ], [ 96.059529453000152, 21.984412747000079 ], [ 96.059540490000131, 21.984412176000149 ], [ 96.05962927600018, 21.984595847000151 ], [ 96.05970821000011, 21.98475913700014 ], [ 96.059738987000117, 21.984886092000067 ], [ 96.059936638000181, 21.985701403000121 ], [ 96.060322111, 21.987014865999981 ], [ 96.060621923000156, 21.987957132000133 ], [ 96.060836074000179, 21.989084997000134 ], [ 96.060793244000195, 21.990127201 ], [ 96.061669659000131, 21.990131662000124 ], [ 96.061674505000042, 21.990148186000056 ], [ 96.061851622000177, 21.990500027000166 ], [ 96.063167735000093, 21.991497969000136 ], [ 96.063773524000055, 21.992172720999974 ], [ 96.063981169000101, 21.992534661000093 ], [ 96.064175823000198, 21.993030102000148 ], [ 96.064498965000098, 21.993752329000131 ], [ 96.064964878000012, 21.994754136000154 ], [ 96.065350151000189, 21.995444040000052 ], [ 96.065577496000117, 21.995844541000054 ], [ 96.065835069000173, 21.996269464000136 ], [ 96.066459708000082, 21.997274109000045 ], [ 96.067263262000154, 21.998544650000099 ], [ 96.067618623000158, 21.999195805000056 ], [ 96.068011605000152, 22.000010027000087 ], [ 96.068380956000055, 22.000728299000173 ], [ 96.06881155200017, 22.001457220000191 ], [ 96.069303395000077, 22.002196787000173 ], [ 96.069729175000134, 22.002911291000146 ], [ 96.070279620000122, 22.003790416000129 ], [ 96.070507131000056, 22.004268768000088 ], [ 96.07055455800014, 22.0043684850001 ], [ 96.071417301000054, 22.006251433000102 ], [ 96.071503278000137, 22.006553876000169 ], [ 96.071687847000192, 22.007292722000045 ], [ 96.071772354000188, 22.007666782000058 ], [ 96.071844379000197, 22.008398840000041 ], [ 96.071893455000179, 22.009001528 ], [ 96.071991671000148, 22.009705397000062 ], [ 96.072082968000132, 22.009998382000049 ], [ 96.072341908000055, 22.011106330000075 ], [ 96.072438816999977, 22.011375533999967 ], [ 96.072643840000183, 22.011618012000156 ], [ 96.072844136000072, 22.011841300000128 ], [ 96.073873485000036, 22.012848383000062 ], [ 96.074557194000192, 22.01347673700019 ], [ 96.07460525900018, 22.013630436000028 ], [ 96.075018406000197, 22.014757534000012 ], [ 96.075157275000038, 22.015128639000068 ], [ 96.076529624000159, 22.018796019000149 ], [ 96.077131251000139, 22.018772442000056 ], [ 96.077608277000138, 22.018753747000176 ], [ 96.079596315000174, 22.018652228000064 ], [ 96.081646922000061, 22.018509674000143 ], [ 96.081987911000169, 22.018555155000115 ], [ 96.082189985000184, 22.018630401000109 ], [ 96.082444431000056, 22.018774641000164 ], [ 96.082970765000084, 22.019149405000064 ], [ 96.083348719000128, 22.019453463000161 ], [ 96.08360908800006, 22.019683781000026 ], [ 96.083777947000101, 22.019880228000034 ], [ 96.083940079, 22.0200299870001 ], [ 96.084162091999985, 22.020069762999981 ], [ 96.086462602000097, 22.020107130000156 ], [ 96.087228092000032, 22.020116508000058 ], [ 96.08970048600014, 22.020146797000166 ], [ 96.089960907000091, 22.02018724800007 ], [ 96.090081972000064, 22.020278955000094 ], [ 96.090228531000037, 22.020439179 ], [ 96.090597396000078, 22.021000981000157 ], [ 96.090881699000079, 22.021564863000094 ], [ 96.090980914, 22.021745442 ], [ 96.091370648000122, 22.022454783000171 ], [ 96.091530890000058, 22.022697640000104 ], [ 96.091770633000067, 22.022963986000093 ], [ 96.092776954000101, 22.023952064000127 ], [ 96.092868976000091, 22.024080268000091 ], [ 96.093271518, 22.024702018000028 ], [ 96.093536234000055, 22.025189807000174 ], [ 96.093711719000112, 22.025564572000178 ], [ 96.093863719000069, 22.025963262000118 ], [ 96.093893153000181, 22.026040464000118 ], [ 96.093943558000035, 22.026148373000069 ], [ 96.093969105999975, 22.026138906000085 ], [ 96.094232094000063, 22.026041461000091 ], [ 96.094546255000068, 22.02592505400014 ], [ 96.094720253000048, 22.02587082600013 ], [ 96.095512995000092, 22.025619805000019 ], [ 96.095932429000186, 22.025587841000061 ], [ 96.096841865000101, 22.02545470900003 ], [ 96.098317950000137, 22.025123187000133 ], [ 96.103465083000117, 22.023967163000066 ], [ 96.104423235000183, 22.023810761999982 ], [ 96.108282728000177, 22.023600954000074 ], [ 96.108297247000053, 22.023600039000087 ], [ 96.112014253000098, 22.023365903000069 ], [ 96.112556754000138, 22.023339330000056 ], [ 96.120405868000148, 22.022954862000063 ], [ 96.125877488000071, 22.022671574000071 ], [ 96.126606836000065, 22.022633812000151 ], [ 96.127328761000172, 22.022596434999969 ], [ 96.127753548000044, 22.022489253000174 ], [ 96.128041659000189, 22.022300861000019 ], [ 96.128070194000145, 22.022259697000038 ], [ 96.128287004000128, 22.021946930000183 ], [ 96.128378578000081, 22.021597468000039 ], [ 96.128356646000043, 22.020686436000119 ], [ 96.128293398000153, 22.01805921800019 ], [ 96.128276586000197, 22.017360895000024 ], [ 96.128204267000115, 22.015279359000147 ], [ 96.128086210000049, 22.011881374999973 ], [ 96.127818071000149, 22.011341979000122 ], [ 96.127205735000132, 22.010794073000113 ], [ 96.125907224000059, 22.009577356000079 ], [ 96.125569374000179, 22.009260788000176 ], [ 96.124720362000119, 22.008413698000027 ], [ 96.124343749000104, 22.007935310000107 ], [ 96.124069257000144, 22.00745045900004 ], [ 96.124034297000094, 22.00546107100007 ], [ 96.123987014000193, 22.002770494000117 ], [ 96.123962039000162, 22.000496254000097 ], [ 96.12396138600019, 22.000436775000026 ], [ 96.123913593000054, 21.996084611000185 ], [ 96.123815942000022, 21.995763025000031 ], [ 96.123654413000111, 21.995408816000122 ], [ 96.123510467000074, 21.995030640000095 ], [ 96.123449671, 21.994329051000079 ], [ 96.12349000800009, 21.991993284000159 ], [ 96.123705906000168, 21.991954084000099 ], [ 96.123777169000107, 21.99146813700014 ], [ 96.124965170999985, 21.990442557 ], [ 96.126076567000155, 21.98940147400009 ], [ 96.126999095000087, 21.987997827000072 ], [ 96.127361307, 21.987067388000071 ], [ 96.127607448000049, 21.986670479 ], [ 96.128635659000111, 21.985585127000093 ], [ 96.128990458000089, 21.985132800000088 ], [ 96.129035631000193, 21.98479685000018 ], [ 96.128828159000079, 21.984288533000097 ], [ 96.128315598000199, 21.983640012000023 ], [ 96.128041672999984, 21.983185058 ], [ 96.128042537000056, 21.983011403000148 ], [ 96.128043542000057, 21.982809419000091 ], [ 96.128235098000118, 21.982261123000058 ], [ 96.128593187000149, 21.981529167000076 ], [ 96.128679325000178, 21.981353097000067 ], [ 96.129277411000089, 21.980130572000064 ], [ 96.13017933500015, 21.978545659000133 ], [ 96.130666533000124, 21.97775488200017 ], [ 96.130824297, 21.977605453000137 ], [ 96.131468168000083, 21.97710716500012 ], [ 96.131805700000143, 21.977004934000092 ], [ 96.132371091000095, 21.976917018000108 ], [ 96.132649806000188, 21.976752167000029 ], [ 96.132818085000167, 21.976491331000148 ], [ 96.132818407000173, 21.976451767000071 ], [ 96.132821828000033, 21.976031616 ], [ 96.132659035000131, 21.975074552000081 ], [ 96.131835348000095, 21.968695249000064 ], [ 96.131599168000093, 21.966866077000077 ], [ 96.131320734000155, 21.964709648999985 ], [ 96.131043612000155, 21.962508544000059 ], [ 96.130140256000175, 21.955333410000037 ], [ 96.129967697000041, 21.954251748000047 ], [ 96.129756760000078, 21.952929516999973 ], [ 96.129674138000155, 21.952411607000158 ], [ 96.129236991000141, 21.951233726000112 ], [ 96.129190533000042, 21.950197226000171 ], [ 96.129166286000043, 21.949656252000125 ], [ 96.129413792000094, 21.948167930000125 ], [ 96.12996670300015, 21.946768534000114 ], [ 96.130575190000116, 21.9457880490001 ], [ 96.131707078000147, 21.944876410000063 ], [ 96.133538035000015, 21.943570966000095 ], [ 96.13451565600019, 21.943155963000095 ], [ 96.136092198000085, 21.94282180099998 ], [ 96.136591774000181, 21.942715911000107 ], [ 96.137255325000126, 21.942575266000119 ], [ 96.138216583000087, 21.94237151800013 ], [ 96.139047823000112, 21.942195329000015 ], [ 96.139027179000152, 21.941735966000124 ], [ 96.138517516000036, 21.930395212000064 ], [ 96.138453095000102, 21.927719100000161 ], [ 96.138451655000154, 21.927659278000192 ], [ 96.138149164000083, 21.915093383000055 ], [ 96.138035210000055, 21.910359578000168 ], [ 96.138032839000118, 21.910296823000067 ], [ 96.13803142800009, 21.91025946600007 ], [ 96.138027995000073, 21.910168597000109 ], [ 96.137957339000138, 21.908298443999968 ], [ 96.137897792000047, 21.908295182000074 ], [ 96.137870793000047, 21.907597340000052 ], [ 96.137896713000089, 21.907482888000175 ], [ 96.137874241000191, 21.906945529000041 ], [ 96.137847250000164, 21.906300089000126 ], [ 96.13777017200016, 21.904456898000092 ], [ 96.137742265000099, 21.903789576000122 ], [ 96.137724475000198, 21.903364158000102 ], [ 96.137731363000057, 21.903305594000074 ], [ 96.13772061200018, 21.903271778000089 ], [ 96.137679094000077, 21.902278939000098 ], [ 96.137611144000175, 21.900654051000117 ], [ 96.137562107000122, 21.899481428 ], [ 96.137557450000145, 21.899458428000059 ], [ 96.137551906000056, 21.899248821000015 ], [ 96.137508266000168, 21.897598894000055 ], [ 96.137486961000093, 21.896793402000185 ], [ 96.137204925000049, 21.892469348000191 ], [ 96.137212477000105, 21.892468725000015 ], [ 96.137098170000172, 21.889081637000061 ], [ 96.136339799000041, 21.872088308000116 ], [ 96.138557073000186, 21.873150409000175 ], [ 96.142973802000142, 21.875266076000173 ], [ 96.147103202000039, 21.87754454200001 ], [ 96.151576497000065, 21.878662866000184 ], [ 96.159510663000162, 21.879915629000038 ], [ 96.160075758000119, 21.880004855000095 ], [ 96.169022346000133, 21.879557526000156 ], [ 96.170445939000047, 21.879367714000068 ], [ 96.177764275000015, 21.878391935000082 ], [ 96.180906145000108, 21.878391996000175 ], [ 96.193277176000095, 21.879592172000173 ], [ 96.209058335000122, 21.881123180000031 ], [ 96.209771738000086, 21.878392555000119 ], [ 96.212491520000015, 21.870233460000122 ], [ 96.21250634200004, 21.870188996000024 ], [ 96.21546073900015, 21.864026805000037 ], [ 96.214566079000178, 21.860895500000026 ], [ 96.201178329000186, 21.856516088000092 ], [ 96.194147046000126, 21.852609471000051 ], [ 96.192932955000117, 21.849654704000102 ], [ 96.190805150000187, 21.84447620800006 ], [ 96.192391629000099, 21.841984983000089 ], [ 96.19408961400012, 21.840058908000174 ], [ 96.196469333000152, 21.838926069000138 ], [ 96.199072022999985, 21.837114064000048 ], [ 96.199115091000181, 21.837027919000093 ], [ 96.201055377000159, 21.833144822000065 ], [ 96.201259752000112, 21.830306137000093 ], [ 96.201269150000144, 21.83017540000003 ], [ 96.201269168000181, 21.830175352000026 ], [ 96.201269192000154, 21.830175015000123 ], [ 96.201416251000182, 21.829777928 ], [ 96.201416311000173, 21.82977802500011 ], [ 96.20354617900017, 21.83321858100004 ], [ 96.209966439000084, 21.836982181000053 ], [ 96.23409775600004, 21.837867734000042 ], [ 96.236975801000199, 21.842959662000169 ], [ 96.239398774000051, 21.845087449000118 ], [ 96.24687959400012, 21.843939425000144 ], [ 96.247976003000133, 21.843771167000057 ], [ 96.251107308000144, 21.841758183000138 ], [ 96.250212649000105, 21.839074207000124 ], [ 96.24216071800015, 21.836166566000145 ], [ 96.241969718000121, 21.835478964000117 ], [ 96.241212144000144, 21.832751695000127 ], [ 96.241042396000125, 21.832140600000116 ], [ 96.249317992000101, 21.82386500399997 ], [ 96.256768954000165, 21.817754709000042 ], [ 96.257369923000056, 21.810445119000121 ], [ 96.258654427000124, 21.814127363000125 ], [ 96.260724894000134, 21.820062704000179 ], [ 96.261172223000074, 21.826548980000041 ], [ 96.25989254000018, 21.829534907000095 ], [ 96.259892512000192, 21.829534973000079 ], [ 96.260235071000182, 21.831379863000109 ], [ 96.260316609000199, 21.831818996000152 ], [ 96.261000970000055, 21.834781511000017 ], [ 96.25848824500008, 21.843994832000192 ], [ 96.258040914999981, 21.850928438000153 ], [ 96.252001968000116, 21.855625398000086 ], [ 96.245739354000079, 21.861217018 ], [ 96.243728412000166, 21.870042825000098 ], [ 96.243578682000191, 21.870699973000114 ], [ 96.243207577000135, 21.871095409000134 ], [ 96.242066893000072, 21.873955378000062 ], [ 96.242067157000122, 21.873955476000049 ], [ 96.246140088000061, 21.87547098400006 ], [ 96.251806262000059, 21.87666386300009 ], [ 96.26164750900017, 21.869506591000118 ], [ 96.263138609000066, 21.870103029000063 ], [ 96.267033334000189, 21.875641030999986 ], [ 96.267072776000077, 21.875638760000072 ], [ 96.267354365000187, 21.87604431200009 ], [ 96.267354234000095, 21.876044456999978 ], [ 96.262442761000045, 21.881501649000143 ], [ 96.264828518000172, 21.886273163000055 ], [ 96.2656542590002, 21.899760228000162 ], [ 96.26565438200015, 21.899760659000094 ], [ 96.267512497000155, 21.906253880000122 ], [ 96.272880449000183, 21.912218275000043 ], [ 96.272273061000192, 21.91748231300005 ], [ 96.272542953000141, 21.917985916000021 ], [ 96.278062820000059, 21.926046371000041 ], [ 96.278577791000146, 21.926739241000178 ], [ 96.278582977000042, 21.926746218000119 ], [ 96.284146830000054, 21.934232722000161 ], [ 96.28527274400011, 21.936306566000155 ], [ 96.28527316200018, 21.936306578000142 ], [ 96.288201485000059, 21.93639270500006 ], [ 96.291332791000173, 21.940642335000121 ], [ 96.291780121000045, 21.945786625000153 ], [ 96.290739340000187, 21.946641553 ], [ 96.290739114000132, 21.946641739000029 ], [ 96.290968208000095, 21.94713577300007 ], [ 96.289767139000105, 21.952049236999983 ], [ 96.29155645600008, 21.954062221000129 ], [ 96.289543474000197, 21.956522532000179 ], [ 96.291135186000076, 21.962005098000134 ], [ 96.291135410000095, 21.962005537000096 ], [ 96.292898445000048, 21.965469122000059 ], [ 96.28999080400007, 21.969047758000045 ], [ 96.285578418, 21.970631692000154 ], [ 96.285578066000141, 21.970631818000186 ], [ 96.285218488000055, 21.973406055000112 ], [ 96.285218091000161, 21.973409110000091 ], [ 96.285093307000125, 21.974370956000087 ], [ 96.286336576000053, 21.977619497000035 ], [ 96.286339830000145, 21.977627999000049 ], [ 96.286341263000168, 21.977631744000064 ], [ 96.287339955, 21.980241447000083 ], [ 96.287340065000194, 21.980241516000035 ], [ 96.287340164000113, 21.980241776000014 ], [ 96.301053634000027, 21.988906325000073 ], [ 96.305202349000012, 21.991527597000072 ], [ 96.309225972000149, 21.990072244000032 ], [ 96.322645857, 21.994992870000033 ], [ 96.330343171000095, 22.000490949000095 ], [ 96.330474123000101, 22.000584486000093 ], [ 96.333605429000158, 22.003268465000019 ], [ 96.335394746000134, 22.012438718 ], [ 96.340091706000123, 22.017583008000031 ], [ 96.345459661000064, 22.02317462700006 ], [ 96.345683325000095, 22.029213574000096 ], [ 96.347696307000035, 22.0352525240001 ], [ 96.351722272000188, 22.041291470000033 ], [ 96.358655881, 22.045093771000154 ], [ 96.359550538000065, 22.050909056000023 ], [ 96.358883691000017, 22.055206530000135 ], [ 96.362825195000198, 22.062642552000057 ], [ 96.362825261000012, 22.062642800000106 ], [ 96.36282539400014, 22.062643051 ], [ 96.365106583000113, 22.071184158000165 ], [ 96.365510816000096, 22.079896524 ], [ 96.357101787000033, 22.08034810099997 ], [ 96.357101514000135, 22.080348116000096 ], [ 96.354142863000163, 22.076944537000088 ], [ 96.352976817000183, 22.076116169000102 ], [ 96.352976984000065, 22.076115956000024 ], [ 96.356419232000121, 22.071709877000046 ], [ 96.341433695000035, 22.069025899000053 ], [ 96.332710770000119, 22.065223598000102 ], [ 96.314817592000054, 22.068354904000046 ], [ 96.306094666000035, 22.066341922999982 ], [ 96.301845036000145, 22.071038883000142 ], [ 96.295582421000063, 22.073275529000114 ], [ 96.295806086000198, 22.081551125000033 ], [ 96.296151543000065, 22.085629971 ], [ 96.295985816000155, 22.088506701000028 ], [ 96.289767139000105, 22.091616040000133 ], [ 96.279031230000101, 22.09362902099997 ], [ 96.269860977000121, 22.096313000000123 ], [ 96.26382202800005, 22.091616040000133 ], [ 96.257112086000177, 22.09295802600019 ], [ 96.253309786000159, 22.096089335000158 ], [ 96.246376179000151, 22.100115300000141 ], [ 96.240113565000115, 22.100562627000102 ], [ 96.240113565000115, 22.103693936000127 ], [ 96.241419120000046, 22.107175416000018 ], [ 96.241419166000071, 22.107175526000049 ], [ 96.244810525000105, 22.115324502000192 ], [ 96.243692201000101, 22.122481774000107 ], [ 96.243692201000101, 22.128125117000138 ], [ 96.243692201000101, 22.13075736900015 ], [ 96.242384365000078, 22.139185656000052 ], [ 96.24238431100008, 22.139186004000067 ], [ 96.243864049000081, 22.144182167000167 ], [ 96.243864068, 22.144182200999978 ], [ 96.249139894000109, 22.153260816000056 ], [ 96.256664756000077, 22.159162792000018 ], [ 96.255993762000173, 22.162965093000139 ], [ 96.25490754100008, 22.164151919000119 ], [ 96.254907507000098, 22.164151954000033 ], [ 96.251967796000145, 22.167214723000029 ], [ 96.248796703000039, 22.164134233000084 ], [ 96.244139530000098, 22.159610122000117 ], [ 96.236982259, 22.157820803000106 ], [ 96.23317995900004, 22.153123843000174 ], [ 96.222667714000181, 22.157149808000099 ] ] ] } }
]
}
